{
"type": "FeatureCollection",
"name": "municipal-boundary",
"xy_coordinate_resolution": 1e-07,
"features": [
{ "type": "Feature", "properties": { "PSGC": "043426000", "name": "Santa Cruz", "area": 37969898.205700003 }, "geometry": { "type": "MultiPolygon", "coordinates": [ [ [ [ 121.4025208, 14.2181941 ], [ 121.4024469, 14.2180316 ], [ 121.402334, 14.2179362 ], [ 121.4022897, 14.2178454 ], [ 121.4022499, 14.2175202 ], [ 121.4021957, 14.2173433 ], [ 121.4021561, 14.2171282 ], [ 121.4020819, 14.2167612 ], [ 121.4020571, 14.2166034 ], [ 121.4023518, 14.2165286 ], [ 121.4023581, 14.2159188 ], [ 121.4023502, 14.2155673 ], [ 121.4024709, 14.2152119 ], [ 121.4026826, 14.214322 ], [ 121.4027339, 14.2141928 ], [ 121.4029488, 14.2137888 ], [ 121.403815, 14.212132 ], [ 121.4040467, 14.2100224 ], [ 121.4041193, 14.2094842 ], [ 121.404307, 14.2094121 ], [ 121.404955, 14.2097482 ], [ 121.4068471, 14.2106164 ], [ 121.4084034, 14.2113118 ], [ 121.4072813, 14.2161996 ], [ 121.4054479, 14.2243708 ], [ 121.4107549, 14.225819 ], [ 121.4131073, 14.2264782 ], [ 121.4180391, 14.2277808 ], [ 121.4205225, 14.2284437 ], [ 121.4205008, 14.2286088 ], [ 121.4206118, 14.2289888 ], [ 121.4207002, 14.2290748 ], [ 121.4208548, 14.2291534 ], [ 121.4211639, 14.2292677 ], [ 121.4211936, 14.2294039 ], [ 121.4208704, 14.229634 ], [ 121.420797, 14.2297203 ], [ 121.4207439, 14.2301771 ], [ 121.420798, 14.2302846 ], [ 121.4203709, 14.230008 ], [ 121.4202018, 14.2300298 ], [ 121.4201578, 14.230116 ], [ 121.4201138, 14.2301662 ], [ 121.420092, 14.2303313 ], [ 121.4199968, 14.2305395 ], [ 121.419909, 14.2308123 ], [ 121.4198432, 14.2310204 ], [ 121.4196891, 14.2312144 ], [ 121.4195643, 14.2313007 ], [ 121.4192625, 14.2311721 ], [ 121.4191962, 14.2311148 ], [ 121.4190706, 14.2308281 ], [ 121.4190049, 14.2307396 ], [ 121.4188907, 14.2306636 ], [ 121.4188335, 14.2307939 ], [ 121.4184599, 14.2317249 ], [ 121.4183278, 14.2318543 ], [ 121.4180966, 14.2325629 ], [ 121.4175312, 14.2323808 ], [ 121.4173175, 14.2328464 ], [ 121.4174652, 14.2331474 ], [ 121.4181027, 14.2331942 ], [ 121.4181116, 14.234156 ], [ 121.4181168, 14.2355383 ], [ 121.4181184, 14.2358014 ], [ 121.4180744, 14.2358446 ], [ 121.4178452, 14.2365528 ], [ 121.4181109, 14.2370306 ], [ 121.4181116, 14.2374611 ], [ 121.4175587, 14.2380635 ], [ 121.4180999, 14.2391136 ], [ 121.4180911, 14.2395143 ], [ 121.4182676, 14.2396962 ], [ 121.4184314, 14.2398233 ], [ 121.4186759, 14.239924 ], [ 121.4189565, 14.2401463 ], [ 121.4191471, 14.2403826 ], [ 121.4192937, 14.2406451 ], [ 121.4193682, 14.2409646 ], [ 121.4193507, 14.2412359 ], [ 121.4192656, 14.2415573 ], [ 121.4192422, 14.2418926 ], [ 121.4193629, 14.2422743 ], [ 121.4194487, 14.2426177 ], [ 121.4197809, 14.2435433 ], [ 121.4199504, 14.2439313 ], [ 121.4201029, 14.2442122 ], [ 121.4203045, 14.2446921 ], [ 121.4204629, 14.2454791 ], [ 121.4206219, 14.2458746 ], [ 121.4207978, 14.2464307 ], [ 121.4211911, 14.2469515 ], [ 121.4216239, 14.2475744 ], [ 121.4222791, 14.2482091 ], [ 121.4227515, 14.248584 ], [ 121.4231339, 14.248779 ], [ 121.424047, 14.2490251 ], [ 121.424727, 14.2492091 ], [ 121.4249624, 14.2492749 ], [ 121.4253437, 14.2496745 ], [ 121.425558, 14.2504859 ], [ 121.425285, 14.2515422 ], [ 121.425094, 14.2522001 ], [ 121.4249971, 14.2528782 ], [ 121.4249052, 14.2535659 ], [ 121.4248182, 14.2542512 ], [ 121.4247288, 14.2549389 ], [ 121.4246219, 14.2568265 ], [ 121.4246092, 14.2578805 ], [ 121.4248191, 14.258103 ], [ 121.4253242, 14.2585925 ], [ 121.4253649, 14.2586468 ], [ 121.425522, 14.2590539 ], [ 121.425639, 14.2593758 ], [ 121.425752, 14.2596985 ], [ 121.4258721, 14.26002 ], [ 121.4259025, 14.260113 ], [ 121.4259343, 14.260356 ], [ 121.4260261, 14.2610436 ], [ 121.4261502, 14.2618786 ], [ 121.4259254, 14.2622897 ], [ 121.4259345, 14.2623922 ], [ 121.4259485, 14.2625489 ], [ 121.4260518, 14.2627209 ], [ 121.4263986, 14.263299 ], [ 121.4266267, 14.2636304 ], [ 121.4268793, 14.2636946 ], [ 121.4270803, 14.2636512 ], [ 121.4272078, 14.2636246 ], [ 121.4274455, 14.2635692 ], [ 121.4276296, 14.2636741 ], [ 121.4276298, 14.2638009 ], [ 121.4275932, 14.2638918 ], [ 121.427336, 14.2640142 ], [ 121.4273018, 14.2641004 ], [ 121.4273217, 14.2642223 ], [ 121.4274297, 14.2643225 ], [ 121.4280256, 14.264682 ], [ 121.4281765, 14.2649472 ], [ 121.4282956, 14.2652518 ], [ 121.4282868, 14.2653858 ], [ 121.4282947, 14.2659594 ], [ 121.4283362, 14.2662479 ], [ 121.428383, 14.2663377 ], [ 121.4284545, 14.2664081 ], [ 121.4285407, 14.2664459 ], [ 121.4286289, 14.2664542 ], [ 121.428761, 14.2664786 ], [ 121.4288716, 14.2664815 ], [ 121.4290811, 14.2665617 ], [ 121.4291757, 14.2666077 ], [ 121.4292934, 14.2667757 ], [ 121.4292194, 14.2669357 ], [ 121.4290922, 14.2671797 ], [ 121.4291104, 14.267287 ], [ 121.4291934, 14.2673454 ], [ 121.4292849, 14.2673791 ], [ 121.429492, 14.2674386 ], [ 121.4297674, 14.2677108 ], [ 121.4299173, 14.2678923 ], [ 121.4299469, 14.267964 ], [ 121.42993, 14.2681075 ], [ 121.4299325, 14.2681553 ], [ 121.4299351, 14.2682247 ], [ 121.4299819, 14.2683394 ], [ 121.4300403, 14.2684218 ], [ 121.4303547, 14.2686986 ], [ 121.4303896, 14.2690022 ], [ 121.4305128, 14.2693261 ], [ 121.4304859, 14.269362 ], [ 121.4304541, 14.269417 ], [ 121.4304028, 14.2695026 ], [ 121.4301611, 14.2700602 ], [ 121.4299875, 14.2703565 ], [ 121.4299704, 14.270402 ], [ 121.4298777, 14.2706413 ], [ 121.4295482, 14.2706649 ], [ 121.429201, 14.2706921 ], [ 121.4291398, 14.2707041 ], [ 121.4290748, 14.2707114 ], [ 121.4280991, 14.2707921 ], [ 121.4271552, 14.2708703 ], [ 121.4271489, 14.2710435 ], [ 121.427144, 14.2711417 ], [ 121.4271323, 14.2714048 ], [ 121.4270218, 14.2735574 ], [ 121.4270195, 14.2736459 ], [ 121.426998, 14.2739412 ], [ 121.4269338, 14.2750414 ], [ 121.4268746, 14.2761822 ], [ 121.4268602, 14.276364 ], [ 121.4268148, 14.2773457 ], [ 121.4267744, 14.2780357 ], [ 121.4267723, 14.2781792 ], [ 121.426758, 14.2784303 ], [ 121.4267173, 14.2789624 ], [ 121.426703, 14.2791873 ], [ 121.4266865, 14.2795329 ], [ 121.426644, 14.2804261 ], [ 121.4266297, 14.2806581 ], [ 121.4265966, 14.2813331 ], [ 121.4265706, 14.2818521 ], [ 121.4264484, 14.2848269 ], [ 121.4263827, 14.2859847 ], [ 121.4262417, 14.2885716 ], [ 121.4261882, 14.288589 ], [ 121.426176, 14.2886082 ], [ 121.4261588, 14.2886154 ], [ 121.4261368, 14.2886441 ], [ 121.4260559, 14.2886419 ], [ 121.4260191, 14.2886515 ], [ 121.4259848, 14.2886898 ], [ 121.4259505, 14.2886899 ], [ 121.4259456, 14.288709 ], [ 121.4258991, 14.2887282 ], [ 121.4258991, 14.2887474 ], [ 121.4258501, 14.2887857 ], [ 121.4258061, 14.2888265 ], [ 121.4258061, 14.2888456 ], [ 121.425789, 14.2888576 ], [ 121.4257399, 14.2888696 ], [ 121.4256811, 14.2888793 ], [ 121.4257033, 14.2889342 ], [ 121.4257352, 14.2889533 ], [ 121.4257499, 14.28897 ], [ 121.4257941, 14.2889652 ], [ 121.4258161, 14.2889436 ], [ 121.4258505, 14.2889651 ], [ 121.4258555, 14.2890368 ], [ 121.4258478, 14.2891035 ], [ 121.4257672, 14.289158 ], [ 121.4257209, 14.2890896 ], [ 121.4256047, 14.2891859 ], [ 121.4256068, 14.2892164 ], [ 121.4255745, 14.2892342 ], [ 121.4255118, 14.2893271 ], [ 121.4254644, 14.2893363 ], [ 121.4254132, 14.2893816 ], [ 121.4253701, 14.2893804 ], [ 121.4253431, 14.2893685 ], [ 121.4252891, 14.2893638 ], [ 121.4252401, 14.2893663 ], [ 121.4252009, 14.2893903 ], [ 121.4251543, 14.2894047 ], [ 121.4250979, 14.2893977 ], [ 121.4250292, 14.2893762 ], [ 121.4249752, 14.2893261 ], [ 121.4249407, 14.2892688 ], [ 121.4249333, 14.2892282 ], [ 121.4249356, 14.2891421 ], [ 121.4249159, 14.289099 ], [ 121.4248668, 14.2890776 ], [ 121.4248374, 14.2890585 ], [ 121.42483, 14.2890418 ], [ 121.4248288, 14.2890226 ], [ 121.4248667, 14.2890035 ], [ 121.4248542, 14.2888935 ], [ 121.4248272, 14.2888768 ], [ 121.4247293, 14.2889846 ], [ 121.4247097, 14.2889942 ], [ 121.424641, 14.2889704 ], [ 121.424565, 14.2889681 ], [ 121.4244914, 14.2889348 ], [ 121.4244375, 14.2889564 ], [ 121.4244374, 14.2889277 ], [ 121.4243712, 14.2889398 ], [ 121.4243393, 14.2889327 ], [ 121.4243021, 14.2889474 ], [ 121.4242854, 14.2889615 ], [ 121.4242192, 14.2889735 ], [ 121.4241506, 14.2889808 ], [ 121.4241139, 14.289012 ], [ 121.4240379, 14.2890408 ], [ 121.4239595, 14.2890649 ], [ 121.4239251, 14.2890506 ], [ 121.423702, 14.2890749 ], [ 121.423648, 14.2890511 ], [ 121.4236161, 14.2890176 ], [ 121.423616, 14.2889722 ], [ 121.4235278, 14.2890082 ], [ 121.4234591, 14.2890203 ], [ 121.4234028, 14.2890395 ], [ 121.4233464, 14.2890301 ], [ 121.4233072, 14.2890612 ], [ 121.4232582, 14.2890876 ], [ 121.4231876, 14.2890982 ], [ 121.4231876, 14.2890982 ], [ 121.4230633, 14.2891238 ], [ 121.423029, 14.2891454 ], [ 121.4229874, 14.2891622 ], [ 121.4229261, 14.2892101 ], [ 121.4228575, 14.2892318 ], [ 121.4227791, 14.2892391 ], [ 121.4226859, 14.2892488 ], [ 121.4226001, 14.2892825 ], [ 121.422545, 14.2893136 ], [ 121.4225035, 14.2894046 ], [ 121.4224668, 14.289462 ], [ 121.4224301, 14.2895028 ], [ 121.4223566, 14.2895196 ], [ 121.4223616, 14.2895627 ], [ 121.422293, 14.2896465 ], [ 121.4222785, 14.2897159 ], [ 121.4222564, 14.2897302 ], [ 121.4222418, 14.2897638 ], [ 121.422237, 14.2898522 ], [ 121.4222273, 14.2898881 ], [ 121.4221881, 14.2899312 ], [ 121.4221428, 14.2899385 ], [ 121.4220961, 14.2899218 ], [ 121.4220593, 14.2898884 ], [ 121.4220176, 14.2898813 ], [ 121.4219661, 14.289891 ], [ 121.421927, 14.2899341 ], [ 121.421878, 14.2899677 ], [ 121.4218241, 14.2900228 ], [ 121.4217728, 14.2901089 ], [ 121.4217484, 14.2901879 ], [ 121.4217412, 14.2902596 ], [ 121.4217167, 14.2903027 ], [ 121.4216997, 14.2903649 ], [ 121.4216875, 14.29042 ], [ 121.4217066, 14.2904685 ], [ 121.4217037, 14.2905204 ], [ 121.4217405, 14.2905562 ], [ 121.4217308, 14.2906208 ], [ 121.4217457, 14.2907044 ], [ 121.4217752, 14.2907737 ], [ 121.4217581, 14.2908049 ], [ 121.4217239, 14.2908503 ], [ 121.4216798, 14.2908983 ], [ 121.4216235, 14.2909199 ], [ 121.4216064, 14.2909725 ], [ 121.4214374, 14.2910589 ], [ 121.4213589, 14.2910614 ], [ 121.421229, 14.291088 ], [ 121.4211234, 14.291026 ], [ 121.4210913, 14.2909256 ], [ 121.4210839, 14.290873 ], [ 121.4211156, 14.2908012 ], [ 121.4209665, 14.2907761 ], [ 121.420917, 14.2907704 ], [ 121.4209096, 14.2907465 ], [ 121.4208826, 14.2907466 ], [ 121.4208728, 14.2907681 ], [ 121.4208263, 14.2908256 ], [ 121.4207651, 14.2908616 ], [ 121.4207063, 14.2908856 ], [ 121.420628, 14.2909886 ], [ 121.4205863, 14.2909839 ], [ 121.420503, 14.2910127 ], [ 121.4204319, 14.2910224 ], [ 121.4202922, 14.2910657 ], [ 121.4202726, 14.2911016 ], [ 121.4201354, 14.2911449 ], [ 121.419949, 14.2911595 ], [ 121.419954, 14.291193 ], [ 121.4198143, 14.2912267 ], [ 121.4197334, 14.2912556 ], [ 121.4196575, 14.2913035 ], [ 121.4195839, 14.2913156 ], [ 121.4195251, 14.291342 ], [ 121.4194588, 14.2912967 ], [ 121.4193901, 14.2912466 ], [ 121.4191179, 14.2912327 ], [ 121.4190639, 14.2912041 ], [ 121.4189388, 14.2911972 ], [ 121.4188456, 14.2911901 ], [ 121.418696, 14.2912167 ], [ 121.4186935, 14.2911593 ], [ 121.4186616, 14.2911379 ], [ 121.4186345, 14.2911116 ], [ 121.4186052, 14.2911403 ], [ 121.4185292, 14.2911787 ], [ 121.4184532, 14.2911765 ], [ 121.4183699, 14.2912292 ], [ 121.4183257, 14.291215 ], [ 121.4182964, 14.2912485 ], [ 121.4182596, 14.2912605 ], [ 121.4182081, 14.291263 ], [ 121.418154, 14.2912532 ], [ 121.4181222, 14.2912153 ], [ 121.418154, 14.2911889 ], [ 121.4181539, 14.2911363 ], [ 121.4181097, 14.2910886 ], [ 121.418102, 14.2909021 ], [ 121.417972, 14.2908975 ], [ 121.4179401, 14.2908713 ], [ 121.417869, 14.2908618 ], [ 121.4178829, 14.2904361 ], [ 121.4179835, 14.2904647 ], [ 121.4180841, 14.290498 ], [ 121.4181823, 14.2905193 ], [ 121.4182558, 14.2905192 ], [ 121.4183269, 14.2905071 ], [ 121.4184888, 14.2905451 ], [ 121.4185599, 14.2905378 ], [ 121.4185598, 14.2904732 ], [ 121.4185916, 14.2904158 ], [ 121.4185938, 14.290301 ], [ 121.4186109, 14.2902555 ], [ 121.4186084, 14.2902053 ], [ 121.4186034, 14.2901527 ], [ 121.4184121, 14.2901387 ], [ 121.4182145, 14.2900721 ], [ 121.4182585, 14.2899452 ], [ 121.4182633, 14.289895 ], [ 121.4182925, 14.289773 ], [ 121.41829, 14.2897467 ], [ 121.4181919, 14.2897445 ], [ 121.4180502, 14.2900245 ], [ 121.4179888, 14.2900031 ], [ 121.4179275, 14.2899769 ], [ 121.4178857, 14.2899411 ], [ 121.4178342, 14.2899149 ], [ 121.4178096, 14.2898982 ], [ 121.417807, 14.289836 ], [ 121.4177775, 14.2897859 ], [ 121.4178166, 14.2897069 ], [ 121.4178092, 14.2896734 ], [ 121.4178386, 14.2896327 ], [ 121.4177797, 14.2896424 ], [ 121.4177159, 14.2896281 ], [ 121.4176227, 14.2895924 ], [ 121.4175295, 14.2895974 ], [ 121.4174265, 14.2895832 ], [ 121.4173554, 14.2895833 ], [ 121.4173088, 14.2896145 ], [ 121.4171985, 14.2896027 ], [ 121.417174, 14.2896291 ], [ 121.4170956, 14.2896483 ], [ 121.4170097, 14.2896365 ], [ 121.416963, 14.289584 ], [ 121.4168919, 14.2895985 ], [ 121.4167986, 14.2895388 ], [ 121.4167446, 14.2894839 ], [ 121.4167003, 14.2894242 ], [ 121.4166732, 14.2893454 ], [ 121.4166608, 14.2892712 ], [ 121.4166582, 14.2891923 ], [ 121.4167365, 14.2890702 ], [ 121.4167781, 14.2890104 ], [ 121.4168124, 14.2890055 ], [ 121.4168809, 14.2889385 ], [ 121.416925, 14.288881 ], [ 121.4169029, 14.2888595 ], [ 121.4168735, 14.2888859 ], [ 121.4168269, 14.2888812 ], [ 121.4167753, 14.2888525 ], [ 121.416709, 14.2887977 ], [ 121.4167433, 14.2887426 ], [ 121.4167015, 14.2886877 ], [ 121.4166645, 14.2886136 ], [ 121.416564, 14.2886066 ], [ 121.4165592, 14.2886616 ], [ 121.4165151, 14.288688 ], [ 121.416444, 14.2887049 ], [ 121.4164441, 14.2887766 ], [ 121.4164197, 14.2888364 ], [ 121.4163757, 14.2888987 ], [ 121.4163316, 14.2888987 ], [ 121.4163121, 14.288961 ], [ 121.416268, 14.2889993 ], [ 121.4162141, 14.2890209 ], [ 121.4161675, 14.2890234 ], [ 121.4161725, 14.2890712 ], [ 121.4161431, 14.2891023 ], [ 121.4161407, 14.2891406 ], [ 121.4161384, 14.2891884 ], [ 121.4161041, 14.2892363 ], [ 121.4160649, 14.2892603 ], [ 121.4160209, 14.2892986 ], [ 121.415989, 14.289325 ], [ 121.41594, 14.2893251 ], [ 121.4158935, 14.289361 ], [ 121.4158592, 14.2893946 ], [ 121.4158298, 14.2893922 ], [ 121.4158249, 14.2894186 ], [ 121.4158347, 14.2894353 ], [ 121.415896, 14.2894256 ], [ 121.415923, 14.289404 ], [ 121.4160014, 14.2893943 ], [ 121.4160382, 14.2893991 ], [ 121.4161364, 14.2894371 ], [ 121.4161438, 14.2894826 ], [ 121.4161365, 14.2895256 ], [ 121.4160263, 14.2896119 ], [ 121.4159405, 14.2896168 ], [ 121.4158964, 14.2896528 ], [ 121.415867, 14.2896528 ], [ 121.4158376, 14.2896361 ], [ 121.4158008, 14.2896314 ], [ 121.4157492, 14.2896124 ], [ 121.4156977, 14.2895814 ], [ 121.4156437, 14.2895576 ], [ 121.4155825, 14.2896055 ], [ 121.4155752, 14.2896557 ], [ 121.4155336, 14.2897036 ], [ 121.415492, 14.2897467 ], [ 121.4154185, 14.2897995 ], [ 121.4154088, 14.2898354 ], [ 121.4153843, 14.2898498 ], [ 121.4153795, 14.2899359 ], [ 121.4153403, 14.2899527 ], [ 121.4153183, 14.289979 ], [ 121.4152816, 14.2900078 ], [ 121.4152816, 14.2900436 ], [ 121.4152056, 14.2900533 ], [ 121.4152106, 14.2901059 ], [ 121.4151739, 14.2901443 ], [ 121.4151322, 14.2901467 ], [ 121.4151103, 14.2902089 ], [ 121.4150846, 14.2902257 ], [ 121.415011, 14.2902306 ], [ 121.4149423, 14.2902236 ], [ 121.4148565, 14.2901998 ], [ 121.4147902, 14.2901784 ], [ 121.4147315, 14.2902359 ], [ 121.4146775, 14.2902408 ], [ 121.4146801, 14.2902958 ], [ 121.414712, 14.2903077 ], [ 121.4147145, 14.2903292 ], [ 121.4147439, 14.2903267 ], [ 121.4148126, 14.2903745 ], [ 121.4148913, 14.29047 ], [ 121.4148447, 14.2905059 ], [ 121.4147627, 14.2905922 ], [ 121.4146622, 14.2905971 ], [ 121.4146353, 14.2906211 ], [ 121.414601, 14.2906498 ], [ 121.4145839, 14.2906786 ], [ 121.4145839, 14.2907073 ], [ 121.4145766, 14.2907336 ], [ 121.414589, 14.290779 ], [ 121.4146037, 14.2907957 ], [ 121.4146235, 14.2908674 ], [ 121.4146627, 14.2908745 ], [ 121.4146922, 14.2908984 ], [ 121.4147143, 14.2909294 ], [ 121.4147389, 14.2909796 ], [ 121.4147463, 14.2910131 ], [ 121.4147302, 14.2910577 ], [ 121.4147183, 14.2910801 ], [ 121.4146702, 14.2910998 ], [ 121.4146448, 14.291128 ], [ 121.4146326, 14.2911496 ], [ 121.4146056, 14.2911855 ], [ 121.4145689, 14.2912071 ], [ 121.4145272, 14.2912071 ], [ 121.4144831, 14.2911977 ], [ 121.4144511, 14.2911786 ], [ 121.4144119, 14.29115 ], [ 121.4143996, 14.2911739 ], [ 121.4143801, 14.291217 ], [ 121.4143851, 14.2912504 ], [ 121.4143753, 14.2912839 ], [ 121.4143607, 14.291315 ], [ 121.4143803, 14.2913341 ], [ 121.4143707, 14.2914298 ], [ 121.4143413, 14.291449 ], [ 121.4143192, 14.2914706 ], [ 121.4142825, 14.2915113 ], [ 121.4142777, 14.2915328 ], [ 121.4142654, 14.2915424 ], [ 121.414241, 14.2915687 ], [ 121.4142214, 14.2916094 ], [ 121.4142435, 14.2916381 ], [ 121.4142559, 14.2916715 ], [ 121.4142363, 14.2917074 ], [ 121.4141971, 14.2917506 ], [ 121.4141825, 14.2917888 ], [ 121.4141507, 14.2918391 ], [ 121.4141508, 14.2918726 ], [ 121.4141533, 14.2919085 ], [ 121.4141778, 14.2919156 ], [ 121.4141607, 14.2919563 ], [ 121.4141093, 14.2920114 ], [ 121.4140898, 14.2920545 ], [ 121.4140874, 14.2920927 ], [ 121.4141807, 14.2921595 ], [ 121.4141882, 14.2922217 ], [ 121.4146107, 14.2924541 ], [ 121.4143289, 14.2928135 ], [ 121.4142863, 14.2929109 ], [ 121.4141926, 14.2930435 ], [ 121.4140613, 14.2931791 ], [ 121.4139329, 14.2930325 ], [ 121.4138713, 14.2929194 ], [ 121.4137619, 14.2926482 ], [ 121.4136982, 14.2925296 ], [ 121.4135597, 14.2920596 ], [ 121.4135415, 14.2919571 ], [ 121.4135101, 14.2919181 ], [ 121.4135007, 14.2918348 ], [ 121.4135093, 14.2917804 ], [ 121.4135191, 14.2917445 ], [ 121.4135485, 14.2917349 ], [ 121.4135583, 14.2917086 ], [ 121.4136293, 14.2916894 ], [ 121.4136292, 14.29162 ], [ 121.4135973, 14.2915961 ], [ 121.4135972, 14.2915459 ], [ 121.4136634, 14.2915291 ], [ 121.4136977, 14.291529 ], [ 121.4137049, 14.2914333 ], [ 121.413722, 14.2913903 ], [ 121.4137661, 14.2913711 ], [ 121.413793, 14.2913471 ], [ 121.4138396, 14.2913255 ], [ 121.4138813, 14.2913326 ], [ 121.41395, 14.2913612 ], [ 121.4139941, 14.2913539 ], [ 121.4139107, 14.2913134 ], [ 121.4138787, 14.2912896 ], [ 121.4137512, 14.2912922 ], [ 121.4137022, 14.291321 ], [ 121.4136999, 14.291376 ], [ 121.4136557, 14.2913665 ], [ 121.4136286, 14.2912828 ], [ 121.413577, 14.2912351 ], [ 121.4135108, 14.2912424 ], [ 121.4134568, 14.291209 ], [ 121.4133685, 14.2912067 ], [ 121.413359, 14.2913813 ], [ 121.4134179, 14.2914004 ], [ 121.4134082, 14.2914219 ], [ 121.4133493, 14.2914005 ], [ 121.4133297, 14.2914436 ], [ 121.4132661, 14.291513 ], [ 121.413276, 14.291556 ], [ 121.4132932, 14.2915751 ], [ 121.4132835, 14.2916302 ], [ 121.4132435, 14.291656 ], [ 121.4131461, 14.2916253 ], [ 121.4130801, 14.2916098 ], [ 121.4130801, 14.2916098 ], [ 121.412971, 14.2916041 ], [ 121.4130671, 14.2916486 ], [ 121.4131216, 14.2916771 ], [ 121.4130579, 14.2917035 ], [ 121.4130189, 14.2917524 ], [ 121.4129455, 14.2917902 ], [ 121.412835, 14.2917984 ], [ 121.4127933, 14.2917606 ], [ 121.4126366, 14.2917964 ], [ 121.4125625, 14.291752 ], [ 121.4125528, 14.2916961 ], [ 121.4124228, 14.291665 ], [ 121.4123737, 14.2916221 ], [ 121.4123026, 14.2916701 ], [ 121.4122978, 14.2916988 ], [ 121.4123334, 14.2917346 ], [ 121.4123212, 14.2917729 ], [ 121.4122968, 14.2918064 ], [ 121.4122576, 14.2918447 ], [ 121.4122356, 14.2918783 ], [ 121.4122037, 14.2918951 ], [ 121.4121694, 14.2919238 ], [ 121.4121082, 14.2919622 ], [ 121.4120421, 14.2919982 ], [ 121.411998, 14.2920222 ], [ 121.411971, 14.2920413 ], [ 121.4119195, 14.2920438 ], [ 121.4118435, 14.2920248 ], [ 121.411765, 14.2920273 ], [ 121.4116866, 14.2920729 ], [ 121.4116401, 14.2921041 ], [ 121.4116426, 14.2921328 ], [ 121.4116108, 14.2921735 ], [ 121.4116354, 14.2922165 ], [ 121.4116379, 14.2922739 ], [ 121.4116012, 14.2923241 ], [ 121.4115523, 14.2923649 ], [ 121.4115523, 14.2923912 ], [ 121.4115181, 14.2924582 ], [ 121.4114985, 14.2924869 ], [ 121.4114729, 14.2925563 ], [ 121.4114388, 14.2926712 ], [ 121.4114267, 14.2927501 ], [ 121.4113925, 14.2928506 ], [ 121.4113436, 14.2929463 ], [ 121.4113437, 14.2929942 ], [ 121.4112874, 14.293054 ], [ 121.4112948, 14.2930851 ], [ 121.4112484, 14.2931809 ], [ 121.4112178, 14.293212 ], [ 121.4112473, 14.2932287 ], [ 121.4112719, 14.2932669 ], [ 121.4112695, 14.2933267 ], [ 121.4112402, 14.2933794 ], [ 121.4112011, 14.2934679 ], [ 121.4111767, 14.2935469 ], [ 121.4111327, 14.2936115 ], [ 121.4110984, 14.2936498 ], [ 121.4110788, 14.2936523 ], [ 121.4110201, 14.2936954 ], [ 121.4109589, 14.2937625 ], [ 121.410932, 14.2938151 ], [ 121.4109125, 14.2938725 ], [ 121.4109175, 14.2939204 ], [ 121.4108832, 14.2939682 ], [ 121.4108514, 14.2939922 ], [ 121.4107877, 14.2940138 ], [ 121.4107558, 14.2940378 ], [ 121.4107289, 14.2940689 ], [ 121.4107168, 14.2941407 ], [ 121.4107071, 14.2942364 ], [ 121.4107024, 14.294332 ], [ 121.4107026, 14.2944373 ], [ 121.4107101, 14.2945066 ], [ 121.4107201, 14.294607 ], [ 121.4107325, 14.2946907 ], [ 121.4107424, 14.2947505 ], [ 121.4107572, 14.2948222 ], [ 121.4107843, 14.2948795 ], [ 121.4107881, 14.2949441 ], [ 121.4108102, 14.294968 ], [ 121.4108348, 14.295011 ], [ 121.4108349, 14.2950445 ], [ 121.4108668, 14.2950994 ], [ 121.4108865, 14.2951329 ], [ 121.4108989, 14.2951878 ], [ 121.4109039, 14.2952428 ], [ 121.4109211, 14.295293 ], [ 121.4109531, 14.2953264 ], [ 121.4109728, 14.2953671 ], [ 121.4110096, 14.295367 ], [ 121.4110586, 14.2953741 ], [ 121.4110856, 14.2953932 ], [ 121.4110979, 14.2954242 ], [ 121.4111078, 14.2954792 ], [ 121.4111372, 14.2954505 ], [ 121.4111764, 14.2954289 ], [ 121.4112132, 14.2954432 ], [ 121.4112623, 14.2954718 ], [ 121.4112771, 14.2955196 ], [ 121.4113041, 14.2955482 ], [ 121.4113239, 14.2956152 ], [ 121.4113289, 14.2956606 ], [ 121.4113387, 14.2956797 ], [ 121.4113706, 14.2957012 ], [ 121.4113633, 14.2957275 ], [ 121.4113241, 14.2957228 ], [ 121.4112848, 14.2957228 ], [ 121.4112579, 14.2957588 ], [ 121.4112187, 14.2957804 ], [ 121.411182, 14.2957924 ], [ 121.4111869, 14.2958091 ], [ 121.4111527, 14.2958761 ], [ 121.4111528, 14.2959311 ], [ 121.4111087, 14.2959312 ], [ 121.4110867, 14.2959719 ], [ 121.411099, 14.2960006 ], [ 121.4110843, 14.2960245 ], [ 121.4110475, 14.2960365 ], [ 121.4110034, 14.2960581 ], [ 121.4109668, 14.2961204 ], [ 121.41093, 14.2961491 ], [ 121.4108688, 14.2962066 ], [ 121.4108272, 14.2962354 ], [ 121.4107905, 14.2962737 ], [ 121.4107881, 14.2963 ], [ 121.4108593, 14.2963597 ], [ 121.4109034, 14.2963644 ], [ 121.410928, 14.2963859 ], [ 121.4109158, 14.2964026 ], [ 121.4109477, 14.2964337 ], [ 121.4109967, 14.2963858 ], [ 121.4110654, 14.296443 ], [ 121.4110826, 14.2964215 ], [ 121.4111316, 14.2964238 ], [ 121.4111291, 14.2963807 ], [ 121.4111511, 14.2963568 ], [ 121.4112346, 14.296426 ], [ 121.4112444, 14.2963973 ], [ 121.4113106, 14.2964187 ], [ 121.4113524, 14.2964521 ], [ 121.4113573, 14.2964856 ], [ 121.4113843, 14.2964784 ], [ 121.4114138, 14.2965166 ], [ 121.4114188, 14.2965524 ], [ 121.4114531, 14.2965548 ], [ 121.4114727, 14.2965739 ], [ 121.4114776, 14.2965523 ], [ 121.4115119, 14.2965523 ], [ 121.4114973, 14.2965738 ], [ 121.4114973, 14.2965977 ], [ 121.4115218, 14.2966097 ], [ 121.4114949, 14.2966456 ], [ 121.4114631, 14.296648 ], [ 121.411468, 14.2966767 ], [ 121.4114925, 14.2966767 ], [ 121.4114926, 14.296703 ], [ 121.4115172, 14.2967292 ], [ 121.4115465, 14.2967029 ], [ 121.4115833, 14.2966885 ], [ 121.4116423, 14.2967673 ], [ 121.4116718, 14.2967983 ], [ 121.4116938, 14.2967744 ], [ 121.4117624, 14.296736 ], [ 121.4118115, 14.2967766 ], [ 121.4118508, 14.2967956 ], [ 121.4119121, 14.2967931 ], [ 121.4119121, 14.296774 ], [ 121.411944, 14.2967859 ], [ 121.4119684, 14.2967643 ], [ 121.4119708, 14.2967261 ], [ 121.4119193, 14.2966831 ], [ 121.4118333, 14.2966043 ], [ 121.4117768, 14.2965327 ], [ 121.4117153, 14.296473 ], [ 121.4116146, 14.2963656 ], [ 121.4115827, 14.296368 ], [ 121.4115681, 14.2963967 ], [ 121.4115828, 14.2964326 ], [ 121.4116197, 14.2964803 ], [ 121.411578, 14.2964804 ], [ 121.4115486, 14.2964637 ], [ 121.4115191, 14.2964638 ], [ 121.4114995, 14.2964566 ], [ 121.4114798, 14.2964088 ], [ 121.4114674, 14.2963371 ], [ 121.4114796, 14.2962965 ], [ 121.4114624, 14.2962558 ], [ 121.4114512, 14.2961937 ], [ 121.4115151, 14.2962557 ], [ 121.4115201, 14.2962892 ], [ 121.411574, 14.2963106 ], [ 121.4116059, 14.2963106 ], [ 121.4116157, 14.2962914 ], [ 121.4116377, 14.2962675 ], [ 121.411699, 14.2962674 ], [ 121.411753, 14.2962601 ], [ 121.4118216, 14.2962385 ], [ 121.4118412, 14.2962217 ], [ 121.4118914, 14.2962049 ], [ 121.411916, 14.2962383 ], [ 121.4120337, 14.2962142 ], [ 121.4120827, 14.2961926 ], [ 121.4121218, 14.2961495 ], [ 121.4121611, 14.2961422 ], [ 121.4121782, 14.2961111 ], [ 121.4121781, 14.29608 ], [ 121.4121413, 14.2960705 ], [ 121.4121045, 14.2960778 ], [ 121.4121315, 14.296049 ], [ 121.4121976, 14.2960154 ], [ 121.4122245, 14.2959867 ], [ 121.4122392, 14.2959819 ], [ 121.4122392, 14.2959604 ], [ 121.4122857, 14.2959196 ], [ 121.4123176, 14.2959172 ], [ 121.4123421, 14.29591 ], [ 121.4123543, 14.2958908 ], [ 121.4124477, 14.2959648 ], [ 121.4124306, 14.2960079 ], [ 121.4124454, 14.2960533 ], [ 121.4124357, 14.296137 ], [ 121.4124334, 14.296204 ], [ 121.4123868, 14.2962016 ], [ 121.4123843, 14.2961682 ], [ 121.4123573, 14.2961682 ], [ 121.4123425, 14.2961204 ], [ 121.4123596, 14.2960989 ], [ 121.41234, 14.2960774 ], [ 121.412313, 14.296075 ], [ 121.4122983, 14.296099 ], [ 121.4122616, 14.2961469 ], [ 121.4122642, 14.2962162 ], [ 121.4123526, 14.296271 ], [ 121.4123526, 14.2962926 ], [ 121.4124066, 14.2963236 ], [ 121.4124459, 14.2963235 ], [ 121.4124753, 14.2963378 ], [ 121.4125465, 14.2964046 ], [ 121.4125564, 14.2964405 ], [ 121.4125858, 14.2964141 ], [ 121.4126348, 14.2964117 ], [ 121.4126569, 14.2963925 ], [ 121.4126912, 14.2964116 ], [ 121.4127526, 14.2964186 ], [ 121.4128017, 14.2964449 ], [ 121.4128483, 14.2964639 ], [ 121.4128778, 14.2965069 ], [ 121.4129269, 14.2965212 ], [ 121.4130127, 14.2965425 ], [ 121.4130949, 14.2965567 ], [ 121.4131071, 14.2965376 ], [ 121.4131587, 14.2965614 ], [ 121.4131586, 14.2965232 ], [ 121.4131635, 14.2964921 ], [ 121.4132002, 14.2964729 ], [ 121.4132247, 14.2964322 ], [ 121.4132786, 14.2964058 ], [ 121.4133202, 14.2963985 ], [ 121.413362, 14.2964248 ], [ 121.4133694, 14.2964678 ], [ 121.4133843, 14.2965491 ], [ 121.4133991, 14.2966112 ], [ 121.413409, 14.2966782 ], [ 121.4134361, 14.2967475 ], [ 121.4134582, 14.2967474 ], [ 121.4134534, 14.2968048 ], [ 121.4134804, 14.2968431 ], [ 121.4135197, 14.2968621 ], [ 121.4135467, 14.2968836 ], [ 121.4135419, 14.296929 ], [ 121.4135003, 14.2969793 ], [ 121.4134906, 14.2970224 ], [ 121.4135225, 14.2970486 ], [ 121.413574, 14.2970749 ], [ 121.4136353, 14.2970748 ], [ 121.4136599, 14.297101 ], [ 121.41366, 14.2971752 ], [ 121.4136724, 14.2972325 ], [ 121.4137068, 14.2972683 ], [ 121.4137338, 14.2972563 ], [ 121.4137338, 14.297297 ], [ 121.413675, 14.2973354 ], [ 121.4135844, 14.2973881 ], [ 121.4135195, 14.2974361 ], [ 121.4135222, 14.2975843 ], [ 121.4134929, 14.2976131 ], [ 121.4135469, 14.2976751 ], [ 121.4135763, 14.2976751 ], [ 121.4136034, 14.2977253 ], [ 121.4136476, 14.2977539 ], [ 121.4137187, 14.2977562 ], [ 121.4137507, 14.2977848 ], [ 121.4138513, 14.2978372 ], [ 121.413893, 14.2978683 ], [ 121.4139347, 14.2978658 ], [ 121.4139348, 14.2979064 ], [ 121.4139815, 14.297947 ], [ 121.4140133, 14.297947 ], [ 121.4140232, 14.297978 ], [ 121.4140282, 14.2980163 ], [ 121.4140258, 14.2980689 ], [ 121.4140553, 14.2981119 ], [ 121.4140995, 14.2981477 ], [ 121.4141266, 14.2981907 ], [ 121.4141315, 14.2982146 ], [ 121.4141218, 14.2982624 ], [ 121.4141072, 14.2983007 ], [ 121.4140705, 14.2983391 ], [ 121.4140214, 14.2983583 ], [ 121.4139798, 14.2983727 ], [ 121.4139479, 14.2983991 ], [ 121.4139284, 14.2984373 ], [ 121.4139162, 14.29849 ], [ 121.4139286, 14.2985497 ], [ 121.413963, 14.2985999 ], [ 121.4140023, 14.2986094 ], [ 121.414039, 14.298595 ], [ 121.4140856, 14.298583 ], [ 121.4141126, 14.2985973 ], [ 121.4141323, 14.2986164 ], [ 121.4141151, 14.2986307 ], [ 121.4141029, 14.2986618 ], [ 121.4141152, 14.2987025 ], [ 121.4141472, 14.2987263 ], [ 121.4141546, 14.2987526 ], [ 121.4141375, 14.2987837 ], [ 121.4141229, 14.2988627 ], [ 121.4140936, 14.2989106 ], [ 121.4140422, 14.2989896 ], [ 121.4140398, 14.2990254 ], [ 121.414057, 14.2990445 ], [ 121.4140571, 14.299078 ], [ 121.4140229, 14.299145 ], [ 121.4140278, 14.2991689 ], [ 121.4140548, 14.2992048 ], [ 121.4140965, 14.2992095 ], [ 121.4141235, 14.2991831 ], [ 121.4141529, 14.2991687 ], [ 121.4141798, 14.2991687 ], [ 121.4142068, 14.2991806 ], [ 121.4142093, 14.2992093 ], [ 121.4142412, 14.299214 ], [ 121.4143, 14.2991589 ], [ 121.41431, 14.2992522 ], [ 121.4143027, 14.2992928 ], [ 121.4142979, 14.2993407 ], [ 121.4143077, 14.2993741 ], [ 121.4143176, 14.299398 ], [ 121.4143054, 14.2994387 ], [ 121.4143055, 14.2994841 ], [ 121.4142933, 14.29952 ], [ 121.4142933, 14.2995511 ], [ 121.4143008, 14.2995894 ], [ 121.4143204, 14.2996204 ], [ 121.4143425, 14.2996371 ], [ 121.4143524, 14.2996873 ], [ 121.4144065, 14.2997614 ], [ 121.4144434, 14.2998115 ], [ 121.4144656, 14.2998737 ], [ 121.4144926, 14.2998856 ], [ 121.4145147, 14.299919 ], [ 121.4145466, 14.2999381 ], [ 121.4145491, 14.2999692 ], [ 121.4145615, 14.300005 ], [ 121.414564, 14.3000457 ], [ 121.4145763, 14.3000887 ], [ 121.4145985, 14.3001437 ], [ 121.4146182, 14.3001962 ], [ 121.4146575, 14.3002416 ], [ 121.414665, 14.3002822 ], [ 121.4146748, 14.3003037 ], [ 121.4147067, 14.3003252 ], [ 121.4147019, 14.3003444 ], [ 121.4147092, 14.3003611 ], [ 121.4147338, 14.300361 ], [ 121.414724, 14.3003945 ], [ 121.4147437, 14.3004112 ], [ 121.4147511, 14.3004543 ], [ 121.4148002, 14.3004996 ], [ 121.4148126, 14.3005379 ], [ 121.4148298, 14.3005618 ], [ 121.4148299, 14.3006048 ], [ 121.4148348, 14.3006478 ], [ 121.4148888, 14.3006358 ], [ 121.4148913, 14.3006573 ], [ 121.4148668, 14.300686 ], [ 121.4148521, 14.3007243 ], [ 121.4148718, 14.3007339 ], [ 121.4148767, 14.3007506 ], [ 121.4148718, 14.3007721 ], [ 121.41484, 14.3007889 ], [ 121.4148523, 14.3008104 ], [ 121.4148401, 14.3008511 ], [ 121.414823, 14.3008989 ], [ 121.4148232, 14.3009755 ], [ 121.4148404, 14.3010089 ], [ 121.4148723, 14.301016 ], [ 121.414914, 14.3010447 ], [ 121.4149239, 14.301071 ], [ 121.4149166, 14.3011044 ], [ 121.4149019, 14.301138 ], [ 121.4148823, 14.3011476 ], [ 121.4148628, 14.3011978 ], [ 121.4148383, 14.3012337 ], [ 121.4148139, 14.3012672 ], [ 121.414782, 14.301284 ], [ 121.4147502, 14.3012913 ], [ 121.4147257, 14.3013035 ], [ 121.4147208, 14.301314 ], [ 121.4147392, 14.3013535 ], [ 121.4147, 14.3013631 ], [ 121.4146472, 14.301301 ], [ 121.4146459, 14.3012627 ], [ 121.4146079, 14.3012628 ], [ 121.4146029, 14.3012293 ], [ 121.4145673, 14.3012198 ], [ 121.4145775, 14.3012025 ], [ 121.4145893, 14.301172 ], [ 121.4145856, 14.3011385 ], [ 121.4146002, 14.301093 ], [ 121.4145659, 14.3011074 ], [ 121.4145144, 14.301098 ], [ 121.4144603, 14.3010024 ], [ 121.4143891, 14.3009906 ], [ 121.4143866, 14.3009547 ], [ 121.4143449, 14.3009189 ], [ 121.4142737, 14.300919 ], [ 121.4142321, 14.300943 ], [ 121.414156, 14.3009288 ], [ 121.4141021, 14.3009289 ], [ 121.4140703, 14.3009552 ], [ 121.4140531, 14.3009577 ], [ 121.4140138, 14.3009458 ], [ 121.4139746, 14.3009602 ], [ 121.4139011, 14.3009675 ], [ 121.4138962, 14.3009938 ], [ 121.4138594, 14.3009963 ], [ 121.4138533, 14.3010621 ], [ 121.4138108, 14.3010749 ], [ 121.4137626, 14.3010419 ], [ 121.4137429, 14.3009582 ], [ 121.4137208, 14.3009367 ], [ 121.4137011, 14.3009057 ], [ 121.4136569, 14.3008938 ], [ 121.4136004, 14.3008389 ], [ 121.4135366, 14.300827 ], [ 121.4134901, 14.3008438 ], [ 121.4134583, 14.300875 ], [ 121.4133773, 14.3008823 ], [ 121.4133504, 14.3009158 ], [ 121.4132744, 14.3009255 ], [ 121.4132082, 14.3009304 ], [ 121.413147, 14.3009688 ], [ 121.4131397, 14.3009879 ], [ 121.4131029, 14.3010023 ], [ 121.4130882, 14.3010334 ], [ 121.4130613, 14.3010622 ], [ 121.413027, 14.3010909 ], [ 121.4129633, 14.3011174 ], [ 121.4128604, 14.3011462 ], [ 121.4128016, 14.3011918 ], [ 121.4126743, 14.3013259 ], [ 121.4125592, 14.3014313 ], [ 121.4124614, 14.3015558 ], [ 121.412295, 14.3017809 ], [ 121.4122583, 14.3017977 ], [ 121.4122239, 14.3018026 ], [ 121.4121552, 14.3017883 ], [ 121.4121057, 14.3017203 ], [ 121.4121048, 14.3016832 ], [ 121.41209, 14.3016473 ], [ 121.4120777, 14.3016139 ], [ 121.4120187, 14.301559 ], [ 121.4119746, 14.3015519 ], [ 121.4119428, 14.3015902 ], [ 121.4119011, 14.3015855 ], [ 121.4118251, 14.3016 ], [ 121.4117736, 14.3016048 ], [ 121.4117319, 14.301624 ], [ 121.4117148, 14.3016671 ], [ 121.4116854, 14.3016839 ], [ 121.4116683, 14.3017198 ], [ 121.4116291, 14.3017342 ], [ 121.4115998, 14.3017773 ], [ 121.4115679, 14.3018013 ], [ 121.4115409, 14.3018354 ], [ 121.4115244, 14.3018842 ], [ 121.4114901, 14.3019297 ], [ 121.4114436, 14.30198 ], [ 121.4114142, 14.30198 ], [ 121.41138, 14.3020255 ], [ 121.4112991, 14.3020807 ], [ 121.4112845, 14.3021285 ], [ 121.411363, 14.3021595 ], [ 121.4113901, 14.3022144 ], [ 121.4113902, 14.3022766 ], [ 121.411459, 14.302341 ], [ 121.4114934, 14.3024032 ], [ 121.4115327, 14.302427 ], [ 121.4114863, 14.3025371 ], [ 121.4114668, 14.3025897 ], [ 121.4114522, 14.3026472 ], [ 121.4114596, 14.3026926 ], [ 121.4114817, 14.3027379 ], [ 121.4115211, 14.3027762 ], [ 121.4115579, 14.3027976 ], [ 121.4115801, 14.3028359 ], [ 121.4116857, 14.3029242 ], [ 121.4117054, 14.3029696 ], [ 121.4117716, 14.3029981 ], [ 121.4117767, 14.3030651 ], [ 121.4117399, 14.3030652 ], [ 121.4116858, 14.3029911 ], [ 121.4116392, 14.3029984 ], [ 121.4115926, 14.3029865 ], [ 121.4114896, 14.3029891 ], [ 121.4114185, 14.3029892 ], [ 121.4113769, 14.3030323 ], [ 121.4113622, 14.3030802 ], [ 121.4113132, 14.3031161 ], [ 121.411274, 14.303121 ], [ 121.4112471, 14.3031545 ], [ 121.4112055, 14.3032 ], [ 121.4111074, 14.3032217 ], [ 121.4110633, 14.3032218 ], [ 121.4110044, 14.303186 ], [ 121.4109407, 14.3032387 ], [ 121.4108819, 14.3032603 ], [ 121.4108328, 14.3032652 ], [ 121.4107763, 14.3031959 ], [ 121.4108057, 14.3031457 ], [ 121.4107982, 14.3030692 ], [ 121.4107712, 14.3030668 ], [ 121.4107442, 14.3030525 ], [ 121.4107294, 14.3030071 ], [ 121.4107612, 14.3029664 ], [ 121.4107464, 14.3029282 ], [ 121.4107488, 14.302866 ], [ 121.4107193, 14.3028469 ], [ 121.4107192, 14.3028134 ], [ 121.4107486, 14.3027823 ], [ 121.4107755, 14.3027201 ], [ 121.4107754, 14.3026746 ], [ 121.4107435, 14.3026436 ], [ 121.4107556, 14.3025862 ], [ 121.4107727, 14.3025431 ], [ 121.410816, 14.3024984 ], [ 121.410816, 14.3024984 ], [ 121.4108755, 14.3024473 ], [ 121.4108755, 14.3024162 ], [ 121.4108116, 14.302335 ], [ 121.4107698, 14.3023087 ], [ 121.4107624, 14.3022777 ], [ 121.410728, 14.3022371 ], [ 121.4107107, 14.3021678 ], [ 121.410664, 14.302108 ], [ 121.4106346, 14.3020866 ], [ 121.4106418, 14.3020148 ], [ 121.4106687, 14.3019574 ], [ 121.4106563, 14.3019096 ], [ 121.410536, 14.3018356 ], [ 121.4104207, 14.3017808 ], [ 121.4103814, 14.3017689 ], [ 121.4103616, 14.3016901 ], [ 121.4102855, 14.3016256 ], [ 121.4102661, 14.3016201 ], [ 121.4102902, 14.3015324 ], [ 121.4102553, 14.3015109 ], [ 121.4102459, 14.3014248 ], [ 121.4101667, 14.301364 ], [ 121.4101573, 14.3012725 ], [ 121.4100137, 14.3011705 ], [ 121.4099547, 14.3010827 ], [ 121.4099042, 14.3009783 ], [ 121.4099147, 14.3009311 ], [ 121.4098017, 14.3008977 ], [ 121.4097685, 14.3008654 ], [ 121.40975, 14.3007866 ], [ 121.4097058, 14.3007292 ], [ 121.4096542, 14.3006755 ], [ 121.409621, 14.3006469 ], [ 121.4094812, 14.3006112 ], [ 121.4094002, 14.3005791 ], [ 121.409292, 14.3005613 ], [ 121.4092622, 14.3005363 ], [ 121.4091444, 14.3005221 ], [ 121.4090046, 14.3004937 ], [ 121.4088979, 14.3004723 ], [ 121.4087986, 14.3004761 ], [ 121.4087507, 14.3004798 ], [ 121.4086478, 14.3005194 ], [ 121.4085559, 14.3005411 ], [ 121.4084639, 14.3005556 ], [ 121.408464, 14.3005735 ], [ 121.4083721, 14.3005916 ], [ 121.4083206, 14.3005989 ], [ 121.4082691, 14.3006276 ], [ 121.408214, 14.3006528 ], [ 121.4081147, 14.3006638 ], [ 121.4080558, 14.300671 ], [ 121.4079638, 14.3006353 ], [ 121.407905, 14.3006498 ], [ 121.407835, 14.3005961 ], [ 121.407765, 14.3005424 ], [ 121.4077393, 14.3005711 ], [ 121.4077026, 14.3005856 ], [ 121.4076122, 14.3006012 ], [ 121.4073438, 14.3005718 ], [ 121.4067497, 14.3005082 ], [ 121.4066872, 14.3005335 ], [ 121.4066284, 14.3005658 ], [ 121.4065622, 14.3005875 ], [ 121.4065292, 14.3006342 ], [ 121.4064593, 14.3006558 ], [ 121.4063654, 14.3006496 ], [ 121.4063122, 14.3006498 ], [ 121.4062459, 14.3006355 ], [ 121.4061687, 14.3006106 ], [ 121.4061393, 14.3006572 ], [ 121.4060289, 14.3006395 ], [ 121.4058818, 14.3006756 ], [ 121.4057164, 14.3007333 ], [ 121.4055363, 14.3008233 ], [ 121.4053714, 14.3008587 ], [ 121.4053714, 14.3008587 ], [ 121.4051558, 14.3009297 ], [ 121.4050713, 14.3009729 ], [ 121.404983, 14.3010125 ], [ 121.4048709, 14.3010521 ], [ 121.4048232, 14.3010917 ], [ 121.4047607, 14.3011097 ], [ 121.4047423, 14.3011349 ], [ 121.4046982, 14.3011385 ], [ 121.4046174, 14.3011996 ], [ 121.404507, 14.3012142 ], [ 121.4044629, 14.3012322 ], [ 121.4043894, 14.3012502 ], [ 121.4042938, 14.3012827 ], [ 121.404224, 14.3013187 ], [ 121.4040915, 14.3013189 ], [ 121.4040033, 14.3013513 ], [ 121.4038856, 14.3013551 ], [ 121.4038047, 14.3013768 ], [ 121.4036723, 14.3014021 ], [ 121.403551, 14.3014418 ], [ 121.4034517, 14.3014778 ], [ 121.4034407, 14.3014599 ], [ 121.4034406, 14.3014348 ], [ 121.4034406, 14.3014132 ], [ 121.4033817, 14.301399 ], [ 121.4033082, 14.3014135 ], [ 121.4032972, 14.3014278 ], [ 121.403253, 14.3014279 ], [ 121.4032126, 14.3014531 ], [ 121.4030913, 14.3014784 ], [ 121.4029883, 14.3014822 ], [ 121.4029626, 14.3015073 ], [ 121.4028964, 14.3015182 ], [ 121.4028412, 14.3015434 ], [ 121.4027824, 14.3015507 ], [ 121.402753, 14.3015722 ], [ 121.4027125, 14.3015364 ], [ 121.4026573, 14.301515 ], [ 121.4025947, 14.3015294 ], [ 121.4025175, 14.3015188 ], [ 121.4024329, 14.3015369 ], [ 121.4023962, 14.3015764 ], [ 121.4023408, 14.3014689 ], [ 121.4023297, 14.3014079 ], [ 121.4022929, 14.301408 ], [ 121.4022782, 14.3014259 ], [ 121.4022157, 14.301426 ], [ 121.4021679, 14.3014512 ], [ 121.402098, 14.3014729 ], [ 121.4020171, 14.3014838 ], [ 121.4019399, 14.3014982 ], [ 121.4018995, 14.3015163 ], [ 121.4018554, 14.3015378 ], [ 121.401723, 14.3015452 ], [ 121.4016457, 14.3015238 ], [ 121.40155, 14.3014881 ], [ 121.4014396, 14.3014596 ], [ 121.4013329, 14.3014455 ], [ 121.4012592, 14.3014097 ], [ 121.401204, 14.3013811 ], [ 121.4011635, 14.3013453 ], [ 121.4010788, 14.3012988 ], [ 121.4010382, 14.3012271 ], [ 121.4009682, 14.3011663 ], [ 121.4008779, 14.301042 ], [ 121.4007893, 14.300653 ], [ 121.4009562, 14.300387 ], [ 121.4010522, 14.3003245 ], [ 121.4011176, 14.3003482 ], [ 121.4011618, 14.3003768 ], [ 121.4011398, 14.3004199 ], [ 121.4011471, 14.3004234 ], [ 121.4011472, 14.3004629 ], [ 121.401162, 14.3004987 ], [ 121.4012025, 14.3005345 ], [ 121.4012063, 14.3005883 ], [ 121.4012578, 14.300617 ], [ 121.4012616, 14.3006456 ], [ 121.40128, 14.3006671 ], [ 121.4012543, 14.3006708 ], [ 121.4012543, 14.3007031 ], [ 121.4012801, 14.3007209 ], [ 121.4013022, 14.3007137 ], [ 121.4012947, 14.3006851 ], [ 121.4013279, 14.3006993 ], [ 121.4013499, 14.3006885 ], [ 121.4013941, 14.3006885 ], [ 121.401394, 14.3006526 ], [ 121.4014271, 14.3006382 ], [ 121.4014528, 14.3005879 ], [ 121.4014527, 14.3005413 ], [ 121.4014821, 14.3005126 ], [ 121.401482, 14.3004731 ], [ 121.4015004, 14.3004695 ], [ 121.401515, 14.3004372 ], [ 121.4014929, 14.3003906 ], [ 121.4014928, 14.3003404 ], [ 121.4015001, 14.3002901 ], [ 121.4015331, 14.300247 ], [ 121.401533, 14.3002112 ], [ 121.4015035, 14.3001574 ], [ 121.4015034, 14.3001215 ], [ 121.4014813, 14.3001108 ], [ 121.4014629, 14.3000821 ], [ 121.4014369, 14.299953 ], [ 121.4014331, 14.2998921 ], [ 121.4014036, 14.2998168 ], [ 121.4013777, 14.299763 ], [ 121.401374, 14.2997164 ], [ 121.4014034, 14.2996912 ], [ 121.401407, 14.299659 ], [ 121.4013664, 14.2995693 ], [ 121.4013884, 14.2995191 ], [ 121.4014177, 14.2994652 ], [ 121.4014103, 14.2994222 ], [ 121.401404, 14.299366 ], [ 121.4013133, 14.2993626 ], [ 121.4012824, 14.299247 ], [ 121.4013326, 14.2992077 ], [ 121.4013841, 14.2992004 ], [ 121.401443, 14.2991896 ], [ 121.4014023, 14.2991 ], [ 121.4013948, 14.2990247 ], [ 121.401336, 14.2990176 ], [ 121.4013287, 14.2990355 ], [ 121.4012802, 14.2990282 ], [ 121.4013139, 14.2989997 ], [ 121.4013212, 14.2989746 ], [ 121.4013433, 14.2989709 ], [ 121.40138, 14.2989494 ], [ 121.4013947, 14.298917 ], [ 121.4014425, 14.298917 ], [ 121.4014424, 14.2988703 ], [ 121.4014829, 14.2988667 ], [ 121.4014939, 14.2988451 ], [ 121.4014718, 14.2988344 ], [ 121.4015195, 14.2987805 ], [ 121.4015452, 14.2987303 ], [ 121.4015524, 14.2986657 ], [ 121.4015522, 14.2985688 ], [ 121.4015116, 14.2984936 ], [ 121.4014637, 14.2984112 ], [ 121.4014452, 14.2983394 ], [ 121.401434, 14.2982498 ], [ 121.4013639, 14.2981423 ], [ 121.401316, 14.2981029 ], [ 121.4012498, 14.298121 ], [ 121.4012131, 14.2981712 ], [ 121.401191, 14.2981677 ], [ 121.4012056, 14.2981067 ], [ 121.4012129, 14.2980636 ], [ 121.4011945, 14.2980385 ], [ 121.4012275, 14.2979954 ], [ 121.4012183, 14.2979596 ], [ 121.401185, 14.2978807 ], [ 121.4011261, 14.2978234 ], [ 121.401126, 14.2977947 ], [ 121.401078, 14.2977123 ], [ 121.4010008, 14.2977268 ], [ 121.4009568, 14.2978022 ], [ 121.4008427, 14.2977378 ], [ 121.4008389, 14.2977127 ], [ 121.4009088, 14.297709 ], [ 121.400942, 14.2977197 ], [ 121.4009713, 14.2976802 ], [ 121.4009345, 14.2976623 ], [ 121.400916, 14.2976193 ], [ 121.4008424, 14.2975585 ], [ 121.4007613, 14.2974653 ], [ 121.4007391, 14.2974223 ], [ 121.4006728, 14.2973614 ], [ 121.4005992, 14.2973293 ], [ 121.4005513, 14.2972827 ], [ 121.4005769, 14.2972181 ], [ 121.4005952, 14.2971499 ], [ 121.4006025, 14.2970961 ], [ 121.4006098, 14.2970674 ], [ 121.400676, 14.2970601 ], [ 121.4006722, 14.2970314 ], [ 121.4006318, 14.2970279 ], [ 121.4006316, 14.2969358 ], [ 121.4006315, 14.2968641 ], [ 121.4005824, 14.2968642 ], [ 121.4005431, 14.2968356 ], [ 121.400548, 14.2968021 ], [ 121.4005038, 14.2967543 ], [ 121.400489, 14.2967209 ], [ 121.4005674, 14.296692 ], [ 121.4005673, 14.2966346 ], [ 121.4006065, 14.2966154 ], [ 121.4005865, 14.2964098 ], [ 121.4005374, 14.2963525 ], [ 121.4004366, 14.296214 ], [ 121.4003458, 14.2961806 ], [ 121.4002918, 14.2961329 ], [ 121.4002377, 14.296078 ], [ 121.4001176, 14.2960758 ], [ 121.400115, 14.2959969 ], [ 121.4001149, 14.2959491 ], [ 121.4001589, 14.2958677 ], [ 121.4001503, 14.2958462 ], [ 121.4001085, 14.2958008 ], [ 121.4000987, 14.2957697 ], [ 121.4001035, 14.2957219 ], [ 121.4001132, 14.2956717 ], [ 121.4001402, 14.2956668 ], [ 121.4001548, 14.2956309 ], [ 121.400194, 14.2955926 ], [ 121.4001719, 14.2955639 ], [ 121.4001766, 14.295485 ], [ 121.4001642, 14.2954133 ], [ 121.400125, 14.2954062 ], [ 121.400066, 14.2953465 ], [ 121.4000169, 14.2953059 ], [ 121.3999311, 14.2952917 ], [ 121.3999065, 14.2952559 ], [ 121.3998377, 14.2952106 ], [ 121.3998328, 14.2951819 ], [ 121.3998254, 14.295158 ], [ 121.3997974, 14.2951423 ], [ 121.3998253, 14.2950838 ], [ 121.39983, 14.2950121 ], [ 121.3998201, 14.2949452 ], [ 121.3997856, 14.2948639 ], [ 121.39981, 14.2947873 ], [ 121.3998787, 14.2948064 ], [ 121.3999178, 14.294725 ], [ 121.3999324, 14.2946724 ], [ 121.399898, 14.2946341 ], [ 121.3998343, 14.2946438 ], [ 121.3998048, 14.2946104 ], [ 121.3997949, 14.2945434 ], [ 121.3998193, 14.2944717 ], [ 121.3998633, 14.2943998 ], [ 121.3998926, 14.2943233 ], [ 121.3999072, 14.2942754 ], [ 121.3998728, 14.2942229 ], [ 121.3998287, 14.2942182 ], [ 121.3997795, 14.2941417 ], [ 121.3997352, 14.2940605 ], [ 121.3997941, 14.2940795 ], [ 121.399848, 14.2940794 ], [ 121.3998969, 14.293998 ], [ 121.3999459, 14.2939262 ], [ 121.3999752, 14.2938975 ], [ 121.4000486, 14.2937539 ], [ 121.4000926, 14.293706 ], [ 121.400068, 14.2936534 ], [ 121.4001268, 14.2936485 ], [ 121.4001415, 14.2936198 ], [ 121.4001463, 14.2935815 ], [ 121.4002051, 14.2935432 ], [ 121.4002296, 14.2935144 ], [ 121.4002982, 14.2934521 ], [ 121.4002981, 14.2934139 ], [ 121.4003177, 14.2934043 ], [ 121.4003568, 14.2933468 ], [ 121.4004058, 14.2933228 ], [ 121.4004205, 14.2932989 ], [ 121.4004253, 14.293208 ], [ 121.4004251, 14.2931458 ], [ 121.400376, 14.2931124 ], [ 121.4003465, 14.2930742 ], [ 121.4003366, 14.2930121 ], [ 121.4003414, 14.2929451 ], [ 121.4003659, 14.292902 ], [ 121.4003802, 14.2926868 ], [ 121.4004488, 14.2926627 ], [ 121.4004979, 14.2926626 ], [ 121.4005469, 14.2926482 ], [ 121.400591, 14.2926147 ], [ 121.400586, 14.2925764 ], [ 121.4006301, 14.2925476 ], [ 121.4006104, 14.2925094 ], [ 121.4006495, 14.2924472 ], [ 121.4006788, 14.2923754 ], [ 121.4006934, 14.2923132 ], [ 121.4007571, 14.2922365 ], [ 121.4007814, 14.2921504 ], [ 121.4007421, 14.292117 ], [ 121.400747, 14.2920644 ], [ 121.4007763, 14.2919926 ], [ 121.400781, 14.2919208 ], [ 121.4007516, 14.2919113 ], [ 121.400771, 14.2917965 ], [ 121.400766, 14.29172 ], [ 121.4007561, 14.2916817 ], [ 121.4006334, 14.291615 ], [ 121.4006823, 14.2915527 ], [ 121.4006724, 14.2914906 ], [ 121.4006772, 14.2914332 ], [ 121.4007016, 14.2913518 ], [ 121.4006721, 14.2913088 ], [ 121.4006622, 14.2912658 ], [ 121.4006768, 14.2912132 ], [ 121.4006768, 14.2911797 ], [ 121.4006472, 14.2911271 ], [ 121.4006668, 14.2911032 ], [ 121.4006177, 14.2910363 ], [ 121.4006127, 14.2909789 ], [ 121.4006468, 14.2908975 ], [ 121.4004358, 14.290807 ], [ 121.4004652, 14.2907783 ], [ 121.4005044, 14.2907782 ], [ 121.4005388, 14.2907877 ], [ 121.4005534, 14.2907494 ], [ 121.4005533, 14.2906873 ], [ 121.4006169, 14.2906154 ], [ 121.4006315, 14.2905245 ], [ 121.4006117, 14.2904385 ], [ 121.400543, 14.2904147 ], [ 121.400538, 14.2903668 ], [ 121.4005919, 14.2903285 ], [ 121.4005918, 14.2902759 ], [ 121.4006162, 14.2902137 ], [ 121.4006504, 14.2901514 ], [ 121.4006405, 14.2900797 ], [ 121.4005228, 14.290056 ], [ 121.4004443, 14.2900465 ], [ 121.4003853, 14.2900036 ], [ 121.4004196, 14.2899462 ], [ 121.400395, 14.2899079 ], [ 121.4003752, 14.2898314 ], [ 121.4003233, 14.28977 ], [ 121.4002942, 14.2897855 ], [ 121.4002599, 14.2897796 ], [ 121.4002839, 14.2897438 ], [ 121.4003149, 14.2896922 ], [ 121.4003517, 14.2896742 ], [ 121.4003074, 14.2895811 ], [ 121.4003552, 14.289563 ], [ 121.4003551, 14.2895272 ], [ 121.4002813, 14.2893982 ], [ 121.4002482, 14.289391 ], [ 121.4002481, 14.2893157 ], [ 121.4002885, 14.2892834 ], [ 121.4002663, 14.2892368 ], [ 121.4002295, 14.2892081 ], [ 121.4002147, 14.2891759 ], [ 121.4002183, 14.2891364 ], [ 121.4001778, 14.2890827 ], [ 121.4001483, 14.2890755 ], [ 121.4000931, 14.2890577 ], [ 121.4000379, 14.2890398 ], [ 121.3999974, 14.2890112 ], [ 121.3999569, 14.2889862 ], [ 121.3999825, 14.2889251 ], [ 121.3999898, 14.2888606 ], [ 121.3999786, 14.2887996 ], [ 121.3998946, 14.2887742 ], [ 121.3998388, 14.2887616 ], [ 121.3997848, 14.2887425 ], [ 121.3997529, 14.2887067 ], [ 121.3997332, 14.2886613 ], [ 121.3997184, 14.2886183 ], [ 121.3996889, 14.2885777 ], [ 121.3997207, 14.2885274 ], [ 121.3997304, 14.2884799 ], [ 121.3997475, 14.2884592 ], [ 121.3997622, 14.2884269 ], [ 121.3997731, 14.2883731 ], [ 121.399773, 14.2883229 ], [ 121.3997951, 14.2883049 ], [ 121.399795, 14.2882798 ], [ 121.3998149, 14.2882156 ], [ 121.39981, 14.288192 ], [ 121.3998197, 14.2881633 ], [ 121.3998491, 14.2881489 ], [ 121.3998736, 14.2881297 ], [ 121.399903, 14.2881081 ], [ 121.3999152, 14.288089 ], [ 121.3999275, 14.2880722 ], [ 121.3999642, 14.2880674 ], [ 121.3999691, 14.2880459 ], [ 121.3999887, 14.2880219 ], [ 121.3999739, 14.2879956 ], [ 121.3999322, 14.2879598 ], [ 121.3999223, 14.2879096 ], [ 121.3999026, 14.2878642 ], [ 121.3998706, 14.2878117 ], [ 121.399824, 14.2877735 ], [ 121.39977, 14.2877425 ], [ 121.3997675, 14.2877114 ], [ 121.3997257, 14.2876828 ], [ 121.3997159, 14.2876947 ], [ 121.3996473, 14.2876972 ], [ 121.3996203, 14.2876829 ], [ 121.3996055, 14.2876495 ], [ 121.3995246, 14.2876735 ], [ 121.3994584, 14.2876568 ], [ 121.3992682, 14.2874834 ], [ 121.3989216, 14.2872805 ], [ 121.398835, 14.2872646 ], [ 121.3988168, 14.2872915 ], [ 121.3987728, 14.2873525 ], [ 121.3987286, 14.2873562 ], [ 121.3986734, 14.2873491 ], [ 121.3986476, 14.2873133 ], [ 121.3986218, 14.2872739 ], [ 121.3986342, 14.2872277 ], [ 121.3986342, 14.2872277 ], [ 121.3986253, 14.2871555 ], [ 121.3986252, 14.2871196 ], [ 121.3986657, 14.287116 ], [ 121.3986988, 14.2871123 ], [ 121.3987171, 14.2870621 ], [ 121.3987097, 14.2870154 ], [ 121.3986948, 14.2869509 ], [ 121.398691, 14.2868935 ], [ 121.3986616, 14.2868756 ], [ 121.3986211, 14.2868362 ], [ 121.3985952, 14.2867896 ], [ 121.3985841, 14.2867574 ], [ 121.3985436, 14.2867288 ], [ 121.3984995, 14.2867109 ], [ 121.3984627, 14.2867109 ], [ 121.3984075, 14.2867362 ], [ 121.3983597, 14.2867326 ], [ 121.3983413, 14.2867147 ], [ 121.3983449, 14.286643 ], [ 121.3983264, 14.2866143 ], [ 121.3983226, 14.2865605 ], [ 121.3982821, 14.2865247 ], [ 121.3982122, 14.2864925 ], [ 121.3981459, 14.2864604 ], [ 121.3981018, 14.286464 ], [ 121.398065, 14.286482 ], [ 121.3980182, 14.2865021 ], [ 121.3979949, 14.2864879 ], [ 121.3979949, 14.2864879 ], [ 121.3979972, 14.2864631 ], [ 121.3979696, 14.2864452 ], [ 121.3979364, 14.2864381 ], [ 121.3979099, 14.2864364 ], [ 121.3978986, 14.2864296 ], [ 121.3979028, 14.2863857 ], [ 121.3978807, 14.2863642 ], [ 121.3978041, 14.286369 ], [ 121.397796, 14.2863105 ], [ 121.3977848, 14.286246 ], [ 121.397748, 14.2862137 ], [ 121.397667, 14.2861924 ], [ 121.3976302, 14.286135 ], [ 121.397597, 14.2860777 ], [ 121.3975914, 14.2860382 ], [ 121.3975472, 14.2860275 ], [ 121.3975104, 14.2860061 ], [ 121.3975103, 14.2859666 ], [ 121.3975287, 14.2859415 ], [ 121.3975654, 14.2859342 ], [ 121.3975948, 14.2858947 ], [ 121.397591, 14.2858409 ], [ 121.3975688, 14.2857728 ], [ 121.3975503, 14.2856939 ], [ 121.3975061, 14.2856259 ], [ 121.3974655, 14.2855614 ], [ 121.3974139, 14.2854897 ], [ 121.397377, 14.2854467 ], [ 121.3973586, 14.2854145 ], [ 121.3973033, 14.2853751 ], [ 121.3972444, 14.2853214 ], [ 121.3971965, 14.285282 ], [ 121.397167, 14.2852713 ], [ 121.397134, 14.2852785 ], [ 121.3971008, 14.2852714 ], [ 121.3970861, 14.2852463 ], [ 121.3970787, 14.2852069 ], [ 121.3970786, 14.2851853 ], [ 121.3970565, 14.2851639 ], [ 121.3970785, 14.28511 ], [ 121.3970821, 14.285067 ], [ 121.3970452, 14.2850168 ], [ 121.3970231, 14.2849594 ], [ 121.3969978, 14.28489 ], [ 121.3969548, 14.2848591 ], [ 121.3969474, 14.2848161 ], [ 121.3969142, 14.2847803 ], [ 121.39687, 14.2847265 ], [ 121.3968332, 14.2846979 ], [ 121.3967743, 14.284698 ], [ 121.3967338, 14.2846873 ], [ 121.3966971, 14.2847017 ], [ 121.396664, 14.2847018 ], [ 121.3966382, 14.2846767 ], [ 121.3966087, 14.2846624 ], [ 121.3965573, 14.2846804 ], [ 121.3965132, 14.2847056 ], [ 121.3964874, 14.2846734 ], [ 121.3964873, 14.2846518 ], [ 121.3964652, 14.2846375 ], [ 121.3964505, 14.2846089 ], [ 121.3964541, 14.2845658 ], [ 121.3964209, 14.284512 ], [ 121.3964208, 14.2844618 ], [ 121.3964649, 14.2844582 ], [ 121.3964907, 14.2844402 ], [ 121.3965679, 14.2844508 ], [ 121.3965678, 14.2844042 ], [ 121.3965825, 14.2843683 ], [ 121.3965861, 14.2843109 ], [ 121.3966228, 14.2842857 ], [ 121.3966632, 14.284239 ], [ 121.3966557, 14.2841817 ], [ 121.3966998, 14.2841601 ], [ 121.3967181, 14.2841062 ], [ 121.3966739, 14.2840704 ], [ 121.3966186, 14.2840024 ], [ 121.3965671, 14.2839486 ], [ 121.3965118, 14.28392 ], [ 121.3965522, 14.2838446 ], [ 121.3965779, 14.2838267 ], [ 121.3965777, 14.2837226 ], [ 121.3965886, 14.2836688 ], [ 121.3966327, 14.283597 ], [ 121.3966184, 14.2835585 ], [ 121.3965152, 14.2836082 ], [ 121.3965186, 14.2835577 ], [ 121.3964707, 14.2835255 ], [ 121.3963972, 14.283583 ], [ 121.3963384, 14.2835975 ], [ 121.3962979, 14.2835832 ], [ 121.3962611, 14.2835653 ], [ 121.3962133, 14.2835654 ], [ 121.3961507, 14.2835547 ], [ 121.3961029, 14.2835476 ], [ 121.3960846, 14.2835728 ], [ 121.3960478, 14.2835728 ], [ 121.3960257, 14.2835585 ], [ 121.3959655, 14.2835657 ], [ 121.3959301, 14.2835766 ], [ 121.3959006, 14.2835587 ], [ 121.3958307, 14.283566 ], [ 121.3957645, 14.2835482 ], [ 121.3957388, 14.2835662 ], [ 121.3957167, 14.283559 ], [ 121.3956174, 14.2835735 ], [ 121.3956322, 14.2836381 ], [ 121.3955882, 14.2836991 ], [ 121.3955368, 14.2837243 ], [ 121.3954412, 14.2837424 ], [ 121.3954155, 14.2837855 ], [ 121.3953678, 14.283843 ], [ 121.3952943, 14.2838861 ], [ 121.3951913, 14.2839078 ], [ 121.3951251, 14.2839044 ], [ 121.3950515, 14.283865 ], [ 121.3950117, 14.2838336 ], [ 121.3949925, 14.2838185 ], [ 121.3949079, 14.2838043 ], [ 121.3948123, 14.2838224 ], [ 121.3947314, 14.2838512 ], [ 121.3946689, 14.2838621 ], [ 121.3946199, 14.2838401 ], [ 121.3946199, 14.2838401 ], [ 121.3946143, 14.2838119 ], [ 121.3945811, 14.2837905 ], [ 121.3945259, 14.2837511 ], [ 121.3944229, 14.283719 ], [ 121.3943419, 14.2837012 ], [ 121.394261, 14.283687 ], [ 121.39418, 14.283662 ], [ 121.3940807, 14.2836586 ], [ 121.3940438, 14.2836156 ], [ 121.3940548, 14.2835725 ], [ 121.3940216, 14.2835223 ], [ 121.3939517, 14.2835045 ], [ 121.3939038, 14.2834867 ], [ 121.393911, 14.2834006 ], [ 121.3939441, 14.2833754 ], [ 121.3940029, 14.2833645 ], [ 121.3940618, 14.2833644 ], [ 121.3941095, 14.2833106 ], [ 121.394161, 14.2832961 ], [ 121.3942089, 14.2833499 ], [ 121.3942677, 14.2833426 ], [ 121.394286, 14.2832959 ], [ 121.3943411, 14.2832456 ], [ 121.3943558, 14.283199 ], [ 121.3943593, 14.2831272 ], [ 121.3943408, 14.2830627 ], [ 121.3942672, 14.2830233 ], [ 121.3941826, 14.2830163 ], [ 121.39412, 14.2830056 ], [ 121.3941089, 14.2829447 ], [ 121.3941088, 14.2828837 ], [ 121.3940554, 14.2828407 ], [ 121.3939855, 14.2828265 ], [ 121.3939449, 14.2827656 ], [ 121.3939594, 14.2826759 ], [ 121.3939998, 14.282622 ], [ 121.3939666, 14.2825754 ], [ 121.393915, 14.2825217 ], [ 121.3939444, 14.2824894 ], [ 121.3939885, 14.2824534 ], [ 121.3939884, 14.2823925 ], [ 121.3939626, 14.2823566 ], [ 121.3939148, 14.2823531 ], [ 121.3938854, 14.2824106 ], [ 121.393856, 14.2824214 ], [ 121.3938083, 14.2824717 ], [ 121.3937605, 14.2824825 ], [ 121.3937053, 14.2824431 ], [ 121.3937162, 14.2824072 ], [ 121.3937124, 14.2823499 ], [ 121.3936721, 14.2823894 ], [ 121.3936427, 14.2824432 ], [ 121.3936392, 14.2825114 ], [ 121.3936282, 14.2825796 ], [ 121.3935878, 14.2826119 ], [ 121.3935326, 14.2825941 ], [ 121.3934847, 14.2825511 ], [ 121.3934258, 14.2825225 ], [ 121.3933707, 14.2825226 ], [ 121.3933045, 14.2825514 ], [ 121.393242, 14.282591 ], [ 121.3931612, 14.2826198 ], [ 121.3930729, 14.2826163 ], [ 121.3930214, 14.2826057 ], [ 121.3929772, 14.2825842 ], [ 121.3929459, 14.2825484 ], [ 121.3928686, 14.2825342 ], [ 121.3928097, 14.2825092 ], [ 121.3927765, 14.2824482 ], [ 121.3927102, 14.2823838 ], [ 121.3926623, 14.2823265 ], [ 121.3926034, 14.2822943 ], [ 121.3925739, 14.2822584 ], [ 121.392537, 14.2822083 ], [ 121.3924892, 14.2821904 ], [ 121.3924046, 14.2821906 ], [ 121.392331, 14.2821979 ], [ 121.3922758, 14.28218 ], [ 121.3922206, 14.2821478 ], [ 121.3921543, 14.28213 ], [ 121.3921396, 14.2820834 ], [ 121.3921616, 14.2820475 ], [ 121.3921946, 14.282008 ], [ 121.3922571, 14.2819684 ], [ 121.3922827, 14.2819253 ], [ 121.3923379, 14.2819073 ], [ 121.392404, 14.2818857 ], [ 121.3924152, 14.2819394 ], [ 121.3924592, 14.2818999 ], [ 121.3924702, 14.2818569 ], [ 121.3924885, 14.2818102 ], [ 121.3925069, 14.2817994 ], [ 121.3925215, 14.2817527 ], [ 121.3925362, 14.2817133 ], [ 121.3924847, 14.2817133 ], [ 121.3924663, 14.2816954 ], [ 121.3924662, 14.281656 ], [ 121.3924772, 14.2816344 ], [ 121.3924661, 14.2816201 ], [ 121.3924624, 14.281595 ], [ 121.3924881, 14.2815519 ], [ 121.3925138, 14.2815411 ], [ 121.3925284, 14.2814945 ], [ 121.3926056, 14.2814405 ], [ 121.3926535, 14.2814727 ], [ 121.3927601, 14.2814654 ], [ 121.3928115, 14.2814151 ], [ 121.3928336, 14.2814186 ], [ 121.392885, 14.2813361 ], [ 121.392815, 14.2813111 ], [ 121.3927524, 14.2812789 ], [ 121.3927045, 14.2812323 ], [ 121.3926787, 14.2811714 ], [ 121.3927081, 14.2811355 ], [ 121.392708, 14.2810709 ], [ 121.3927299, 14.2810171 ], [ 121.3927041, 14.2809812 ], [ 121.3927039, 14.2808485 ], [ 121.3926891, 14.2807947 ], [ 121.3927037, 14.280723 ], [ 121.3926632, 14.2806943 ], [ 121.3926191, 14.280759 ], [ 121.3925824, 14.2807698 ], [ 121.3925494, 14.2808165 ], [ 121.392538, 14.2806479 ], [ 121.3924681, 14.2806229 ], [ 121.3924057, 14.2807163 ], [ 121.3923763, 14.2807271 ], [ 121.3923175, 14.2807559 ], [ 121.3922697, 14.2807595 ], [ 121.3921926, 14.2808601 ], [ 121.3921302, 14.2809319 ], [ 121.3920935, 14.2809499 ], [ 121.3920603, 14.2809213 ], [ 121.3919725, 14.2809353 ], [ 121.3919187, 14.2809323 ], [ 121.3918746, 14.280918 ], [ 121.3918414, 14.2808929 ], [ 121.3918156, 14.2808212 ], [ 121.3917677, 14.2807854 ], [ 121.3917272, 14.2807712 ], [ 121.391683, 14.2807461 ], [ 121.3916462, 14.2806996 ], [ 121.3915615, 14.2806531 ], [ 121.3914732, 14.2806209 ], [ 121.3913775, 14.280596 ], [ 121.3912892, 14.2805782 ], [ 121.3912156, 14.2805532 ], [ 121.3911824, 14.2805209 ], [ 121.3911345, 14.2804708 ], [ 121.3911032, 14.2804278 ], [ 121.3909523, 14.2804101 ], [ 121.3909229, 14.2804173 ], [ 121.3908861, 14.2804246 ], [ 121.3908493, 14.2804067 ], [ 121.3908272, 14.2803745 ], [ 121.3907609, 14.2803423 ], [ 121.3906874, 14.2803352 ], [ 121.3906689, 14.2802994 ], [ 121.3906689, 14.2802707 ], [ 121.3906872, 14.280224 ], [ 121.390735, 14.2802024 ], [ 121.3908085, 14.2801951 ], [ 121.3908123, 14.2802489 ], [ 121.3908638, 14.2802704 ], [ 121.390941, 14.2802559 ], [ 121.3909667, 14.2801841 ], [ 121.3909041, 14.2801591 ], [ 121.3908968, 14.2801806 ], [ 121.3908747, 14.2801556 ], [ 121.3908856, 14.2801125 ], [ 121.3908525, 14.2800982 ], [ 121.3907974, 14.2801593 ], [ 121.3907386, 14.280163 ], [ 121.3907054, 14.2801343 ], [ 121.3906503, 14.280138 ], [ 121.3906171, 14.2801309 ], [ 121.3905693, 14.2801309 ], [ 121.3905141, 14.2801131 ], [ 121.3904406, 14.2801132 ], [ 121.3903651, 14.280099 ], [ 121.3903467, 14.2800488 ], [ 121.3903135, 14.2800273 ], [ 121.3903134, 14.2799879 ], [ 121.3902546, 14.279988 ], [ 121.3902215, 14.2799737 ], [ 121.3902104, 14.2799414 ], [ 121.3901699, 14.2799271 ], [ 121.3901183, 14.2798949 ], [ 121.3901146, 14.2798483 ], [ 121.3901071, 14.2797945 ], [ 121.390085, 14.2797694 ], [ 121.3900593, 14.2797551 ], [ 121.3900592, 14.2797408 ], [ 121.3900776, 14.2797228 ], [ 121.3901365, 14.279755 ], [ 121.3901954, 14.2797621 ], [ 121.3902432, 14.2797728 ], [ 121.3903131, 14.2798013 ], [ 121.390383, 14.2797941 ], [ 121.3904309, 14.2798191 ], [ 121.3904933, 14.2797795 ], [ 121.3905302, 14.2798118 ], [ 121.3906404, 14.2797721 ], [ 121.3906404, 14.2797434 ], [ 121.3906991, 14.2796859 ], [ 121.3906659, 14.279625 ], [ 121.390607, 14.2795856 ], [ 121.3905222, 14.2794602 ], [ 121.3904448, 14.2793599 ], [ 121.3904447, 14.2793205 ], [ 121.3903344, 14.2793242 ], [ 121.3903235, 14.2793924 ], [ 121.3902353, 14.2794822 ], [ 121.3901325, 14.2795721 ], [ 121.3900847, 14.279547 ], [ 121.3900259, 14.2795902 ], [ 121.3899817, 14.2795831 ], [ 121.3899523, 14.2795723 ], [ 121.3899338, 14.2795365 ], [ 121.389886, 14.2795186 ], [ 121.3898198, 14.2795188 ], [ 121.3897866, 14.2795009 ], [ 121.3897204, 14.2794902 ], [ 121.3896873, 14.2794687 ], [ 121.3896651, 14.2794186 ], [ 121.3895989, 14.2794151 ], [ 121.3895603, 14.2794151 ], [ 121.3895309, 14.2794618 ], [ 121.3894721, 14.2794763 ], [ 121.389428, 14.279505 ], [ 121.3893913, 14.2795266 ], [ 121.3893582, 14.279559 ], [ 121.3893288, 14.2795482 ], [ 121.3892992, 14.2794801 ], [ 121.3892918, 14.2794371 ], [ 121.3892991, 14.2793761 ], [ 121.3892806, 14.2793367 ], [ 121.3892769, 14.2792972 ], [ 121.3891959, 14.2792615 ], [ 121.389229, 14.2792399 ], [ 121.3892951, 14.2791896 ], [ 121.3893429, 14.2791644 ], [ 121.389376, 14.2791643 ], [ 121.3894568, 14.2791212 ], [ 121.3894457, 14.2790781 ], [ 121.3895193, 14.2790995 ], [ 121.389534, 14.2790672 ], [ 121.3894787, 14.2790422 ], [ 121.3894861, 14.2790171 ], [ 121.3894162, 14.2790459 ], [ 121.3893758, 14.2790783 ], [ 121.3893354, 14.2790783 ], [ 121.3893207, 14.2791106 ], [ 121.3892913, 14.2791465 ], [ 121.3892399, 14.2791646 ], [ 121.3891811, 14.2792364 ], [ 121.389148, 14.2792149 ], [ 121.3891259, 14.2791755 ], [ 121.3890892, 14.279233 ], [ 121.389045, 14.2792223 ], [ 121.3890119, 14.2792223 ], [ 121.3890081, 14.2791542 ], [ 121.3889859, 14.2790825 ], [ 121.3888902, 14.2790288 ], [ 121.3888901, 14.2789929 ], [ 121.388868, 14.2789428 ], [ 121.3888459, 14.2789177 ], [ 121.3888017, 14.2788998 ], [ 121.3887833, 14.2788712 ], [ 121.3887942, 14.2788245 ], [ 121.3887501, 14.2787995 ], [ 121.3887574, 14.2787743 ], [ 121.3887261, 14.2787708 ], [ 121.388715, 14.2787314 ], [ 121.3886965, 14.2786668 ], [ 121.388645, 14.2786777 ], [ 121.3885641, 14.2786778 ], [ 121.3885456, 14.278642 ], [ 121.38852, 14.2786886 ], [ 121.3884721, 14.2786744 ], [ 121.3884059, 14.278635 ], [ 121.3883396, 14.2786064 ], [ 121.3883065, 14.2786065 ], [ 121.3882881, 14.2785957 ], [ 121.3882881, 14.2785742 ], [ 121.3882586, 14.2785563 ], [ 121.3882438, 14.2785169 ], [ 121.3881371, 14.2785099 ], [ 121.3880966, 14.2784777 ], [ 121.3879827, 14.2785209 ], [ 121.3879054, 14.2784708 ], [ 121.3878906, 14.2784206 ], [ 121.3878868, 14.2783453 ], [ 121.3878169, 14.2783669 ], [ 121.3877433, 14.2783491 ], [ 121.3876183, 14.2783493 ], [ 121.3875999, 14.2783744 ], [ 121.3875592, 14.2783644 ], [ 121.3875221, 14.2783616 ], [ 121.3875221, 14.2783342 ], [ 121.3874743, 14.2783379 ], [ 121.3874377, 14.2783551 ], [ 121.3873595, 14.278399 ], [ 121.3872859, 14.2784063 ], [ 121.3871756, 14.2784173 ], [ 121.387072, 14.2784229 ], [ 121.3869752, 14.2784355 ], [ 121.386887, 14.2784895 ], [ 121.3868539, 14.2784752 ], [ 121.3868685, 14.2784249 ], [ 121.3866661, 14.278393 ], [ 121.3866515, 14.2784396 ], [ 121.3864971, 14.2784578 ], [ 121.386372, 14.2784508 ], [ 121.3862727, 14.2784869 ], [ 121.3860778, 14.2785123 ], [ 121.3859344, 14.278534 ], [ 121.3859234, 14.2785484 ], [ 121.3858977, 14.2785664 ], [ 121.3858609, 14.2785664 ], [ 121.3858278, 14.2785557 ], [ 121.3857945, 14.2785637 ], [ 121.3856771, 14.2785918 ], [ 121.3856661, 14.2786134 ], [ 121.3855557, 14.2786279 ], [ 121.3855558, 14.2786494 ], [ 121.3855154, 14.2786889 ], [ 121.3854971, 14.278732 ], [ 121.3854825, 14.2788181 ], [ 121.385409, 14.2788756 ], [ 121.3853024, 14.2788794 ], [ 121.3852508, 14.2788293 ], [ 121.3853021, 14.2787467 ], [ 121.3852358, 14.278693 ], [ 121.3851732, 14.2786357 ], [ 121.3851106, 14.2786035 ], [ 121.3850627, 14.2785605 ], [ 121.3849966, 14.2785714 ], [ 121.3849524, 14.2785356 ], [ 121.3848825, 14.2785357 ], [ 121.3848089, 14.2785538 ], [ 121.3847905, 14.2785179 ], [ 121.3847867, 14.2784641 ], [ 121.3847316, 14.2784857 ], [ 121.3846838, 14.2785002 ], [ 121.3846654, 14.2785253 ], [ 121.3846839, 14.2785396 ], [ 121.3846692, 14.2785683 ], [ 121.3845772, 14.2785613 ], [ 121.3845478, 14.2785434 ], [ 121.3845477, 14.278486 ], [ 121.3845807, 14.2784322 ], [ 121.3845255, 14.2783964 ], [ 121.384485, 14.2783929 ], [ 121.3844261, 14.2784431 ], [ 121.384387, 14.2784671 ], [ 121.3843245, 14.2784744 ], [ 121.3842731, 14.2784996 ], [ 121.3842167, 14.2785045 ], [ 121.3841677, 14.2785282 ], [ 121.3840736, 14.2784532 ], [ 121.3840653, 14.2783639 ], [ 121.384026, 14.2783305 ], [ 121.3839916, 14.2782923 ], [ 121.3839376, 14.2782446 ], [ 121.3840012, 14.2781679 ], [ 121.3839816, 14.278144 ], [ 121.3839913, 14.2781058 ], [ 121.384001, 14.2780101 ], [ 121.383947, 14.2779719 ], [ 121.3838784, 14.2780055 ], [ 121.3838048, 14.2780056 ], [ 121.3837802, 14.2779674 ], [ 121.3837899, 14.2779004 ], [ 121.3837556, 14.2779196 ], [ 121.3837508, 14.2779531 ], [ 121.3837165, 14.2779962 ], [ 121.3836822, 14.2779915 ], [ 121.383643, 14.278025 ], [ 121.3835743, 14.2780347 ], [ 121.3835155, 14.2780443 ], [ 121.3834468, 14.2780205 ], [ 121.3834026, 14.2780063 ], [ 121.3833783, 14.2781067 ], [ 121.3833391, 14.2781451 ], [ 121.3832901, 14.2781595 ], [ 121.3832166, 14.2781931 ], [ 121.3831381, 14.2782028 ], [ 121.3831038, 14.2781933 ], [ 121.3830351, 14.2781647 ], [ 121.3829909, 14.2781504 ], [ 121.3829076, 14.2781649 ], [ 121.3828683, 14.2781267 ], [ 121.3828045, 14.2780981 ], [ 121.3827554, 14.2780838 ], [ 121.3827259, 14.2780456 ], [ 121.3827149, 14.2779923 ], [ 121.3827951, 14.2778676 ], [ 121.3827441, 14.2778384 ], [ 121.3827451, 14.2777825 ], [ 121.3827794, 14.2777681 ], [ 121.3827842, 14.2777059 ], [ 121.3828038, 14.2776533 ], [ 121.3828724, 14.2776245 ], [ 121.3828527, 14.2775815 ], [ 121.3828575, 14.2775288 ], [ 121.3829065, 14.2775001 ], [ 121.3829211, 14.2774379 ], [ 121.382916, 14.2773518 ], [ 121.3829454, 14.2772991 ], [ 121.3829698, 14.2772417 ], [ 121.3828963, 14.2772705 ], [ 121.3828374, 14.2772706 ], [ 121.3827932, 14.2772228 ], [ 121.3828029, 14.2771559 ], [ 121.3827734, 14.2770985 ], [ 121.3827096, 14.2770699 ], [ 121.3826703, 14.2770269 ], [ 121.3826212, 14.2769935 ], [ 121.3825819, 14.2769745 ], [ 121.3825279, 14.2769459 ], [ 121.3825034, 14.2769268 ], [ 121.3824788, 14.276879 ], [ 121.3824395, 14.2768599 ], [ 121.3823856, 14.2768983 ], [ 121.3823023, 14.2769127 ], [ 121.3822189, 14.2768698 ], [ 121.382155, 14.2768125 ], [ 121.3821108, 14.2767743 ], [ 121.3820592, 14.2767362 ], [ 121.3820396, 14.2767099 ], [ 121.3820126, 14.2766932 ], [ 121.38201, 14.276588 ], [ 121.3819487, 14.2765928 ], [ 121.3819266, 14.276612 ], [ 121.3818556, 14.2766647 ], [ 121.3817648, 14.2765955 ], [ 121.3817549, 14.2765429 ], [ 121.3817131, 14.2764689 ], [ 121.3816196, 14.2763207 ], [ 121.3816073, 14.2762753 ], [ 121.3814476, 14.2760795 ], [ 121.38138, 14.2759959 ], [ 121.381326, 14.2759481 ], [ 121.3813112, 14.2758979 ], [ 121.3812964, 14.2758406 ], [ 121.3812841, 14.2757952 ], [ 121.3812742, 14.2757545 ], [ 121.3812447, 14.2757474 ], [ 121.3812226, 14.2757235 ], [ 121.3812814, 14.2757019 ], [ 121.3812667, 14.2756684 ], [ 121.3813083, 14.2756588 ], [ 121.3813083, 14.2756349 ], [ 121.3812911, 14.275611 ], [ 121.3812224, 14.2756111 ], [ 121.3812297, 14.2755441 ], [ 121.3812664, 14.2755226 ], [ 121.3812247, 14.2754904 ], [ 121.381205, 14.2754569 ], [ 121.3811755, 14.2753948 ], [ 121.3812588, 14.2753229 ], [ 121.3811949, 14.2752513 ], [ 121.3810132, 14.2751272 ], [ 121.3809592, 14.2751034 ], [ 121.3808466, 14.2752231 ], [ 121.3807829, 14.2752423 ], [ 121.3807778, 14.2751276 ], [ 121.3806699, 14.2751325 ], [ 121.3806208, 14.2750656 ], [ 121.3806992, 14.2750607 ], [ 121.3807434, 14.2750463 ], [ 121.3807187, 14.2749746 ], [ 121.3806623, 14.2749364 ], [ 121.3806866, 14.2748407 ], [ 121.3806424, 14.2747738 ], [ 121.3805932, 14.2746926 ], [ 121.3805146, 14.2746066 ], [ 121.3804752, 14.274535 ], [ 121.3805192, 14.2744345 ], [ 121.3804749, 14.274315 ], [ 121.3804159, 14.274229 ], [ 121.3803226, 14.2741382 ], [ 121.380239, 14.2740284 ], [ 121.3802978, 14.2739709 ], [ 121.3802438, 14.273947 ], [ 121.3802143, 14.2738945 ], [ 121.3801799, 14.2738658 ], [ 121.3801357, 14.2738229 ], [ 121.380062, 14.2737704 ], [ 121.3800032, 14.2737705 ], [ 121.3800031, 14.273737 ], [ 121.3799197, 14.273718 ], [ 121.3799197, 14.2736893 ], [ 121.3798559, 14.2736702 ], [ 121.379797, 14.2736321 ], [ 121.3796743, 14.2736084 ], [ 121.3795958, 14.2735654 ], [ 121.3795418, 14.2735416 ], [ 121.3794928, 14.2735417 ], [ 121.3794585, 14.2735943 ], [ 121.3794095, 14.2735801 ], [ 121.3793212, 14.2735993 ], [ 121.3792379, 14.2736234 ], [ 121.3791054, 14.2735853 ], [ 121.3790564, 14.273595 ], [ 121.3789877, 14.2735903 ], [ 121.3789534, 14.2735999 ], [ 121.3789044, 14.2735952 ], [ 121.3788161, 14.2735858 ], [ 121.3787425, 14.2735716 ], [ 121.3786886, 14.2735812 ], [ 121.3786002, 14.2735335 ], [ 121.3785119, 14.273505 ], [ 121.3784285, 14.2735146 ], [ 121.3783403, 14.2735483 ], [ 121.3782669, 14.2736106 ], [ 121.3782228, 14.2736632 ], [ 121.3782181, 14.2737876 ], [ 121.3782232, 14.2738832 ], [ 121.3781743, 14.2739598 ], [ 121.3781058, 14.2740652 ], [ 121.3780616, 14.2740413 ], [ 121.3780125, 14.2740223 ], [ 121.3780516, 14.2739266 ], [ 121.3780221, 14.2738692 ], [ 121.3780122, 14.2738166 ], [ 121.3780121, 14.2737592 ], [ 121.3779729, 14.273788 ], [ 121.3779288, 14.2737928 ], [ 121.3779043, 14.2738263 ], [ 121.3778357, 14.2738408 ], [ 121.3778308, 14.2738743 ], [ 121.3777868, 14.2739461 ], [ 121.3777328, 14.2739175 ], [ 121.3776691, 14.2739128 ], [ 121.3775611, 14.2738986 ], [ 121.377512, 14.2738557 ], [ 121.3775266, 14.2737982 ], [ 121.3775903, 14.2737216 ], [ 121.3776638, 14.2736737 ], [ 121.3777715, 14.2736018 ], [ 121.3778499, 14.2735538 ], [ 121.3779431, 14.2735393 ], [ 121.3780117, 14.2735009 ], [ 121.3780559, 14.2735439 ], [ 121.3781294, 14.273539 ], [ 121.3781881, 14.2734241 ], [ 121.3781096, 14.2733908 ], [ 121.3780948, 14.2733478 ], [ 121.3781437, 14.2732664 ], [ 121.3781386, 14.2731707 ], [ 121.3781263, 14.2731086 ], [ 121.3781751, 14.2729842 ], [ 121.3781406, 14.2729029 ], [ 121.3781993, 14.2727737 ], [ 121.3780128, 14.2726783 ], [ 121.3779686, 14.2726736 ], [ 121.3779637, 14.2726449 ], [ 121.3779342, 14.2726354 ], [ 121.3779244, 14.2725971 ], [ 121.3778605, 14.2725542 ], [ 121.3778556, 14.2725255 ], [ 121.3778065, 14.272516 ], [ 121.3777918, 14.2724826 ], [ 121.3777575, 14.2725496 ], [ 121.3777281, 14.2725448 ], [ 121.3775269, 14.2724399 ], [ 121.3774682, 14.2725452 ], [ 121.3774142, 14.2725358 ], [ 121.3773947, 14.2725932 ], [ 121.3773506, 14.2725789 ], [ 121.3773505, 14.2725215 ], [ 121.3773063, 14.2725024 ], [ 121.3772719, 14.2724451 ], [ 121.3772767, 14.2724116 ], [ 121.3773257, 14.2723924 ], [ 121.3773256, 14.2723398 ], [ 121.3773035, 14.2723207 ], [ 121.3773084, 14.2722633 ], [ 121.3772495, 14.2722538 ], [ 121.377181, 14.27234 ], [ 121.3771615, 14.2724214 ], [ 121.3771124, 14.2723975 ], [ 121.3770976, 14.2723545 ], [ 121.377127, 14.2723018 ], [ 121.3770632, 14.2722732 ], [ 121.3769945, 14.2722733 ], [ 121.3769405, 14.2722065 ], [ 121.3769845, 14.2721394 ], [ 121.3769354, 14.2721204 ], [ 121.3768912, 14.272087 ], [ 121.3768569, 14.2721062 ], [ 121.3768423, 14.2721349 ], [ 121.376808, 14.2721589 ], [ 121.3768177, 14.2721158 ], [ 121.376798, 14.272068 ], [ 121.3767441, 14.2721063 ], [ 121.3767489, 14.2720394 ], [ 121.37669, 14.2719821 ], [ 121.3767095, 14.2719438 ], [ 121.376636, 14.2719439 ], [ 121.3765868, 14.2718818 ], [ 121.3765671, 14.2717909 ], [ 121.3765181, 14.2718293 ], [ 121.3764592, 14.2717863 ], [ 121.3764591, 14.2717337 ], [ 121.3764002, 14.2717003 ], [ 121.3763853, 14.2716238 ], [ 121.3763411, 14.2715665 ], [ 121.3763068, 14.2715522 ], [ 121.3762822, 14.2715188 ], [ 121.3762527, 14.2715045 ], [ 121.3762379, 14.2714423 ], [ 121.3762428, 14.2714232 ], [ 121.3762525, 14.2713466 ], [ 121.3762035, 14.2713706 ], [ 121.3761987, 14.271428 ], [ 121.376194, 14.271562 ], [ 121.3761597, 14.2716098 ], [ 121.3761328, 14.2716529 ], [ 121.3760593, 14.2716817 ], [ 121.3759809, 14.2716866 ], [ 121.3758828, 14.2716964 ], [ 121.3758632, 14.2717346 ], [ 121.3758289, 14.2717538 ], [ 121.3757701, 14.2717587 ], [ 121.3757358, 14.2717875 ], [ 121.3756917, 14.2718258 ], [ 121.3756035, 14.2718403 ], [ 121.3755152, 14.27185 ], [ 121.3754467, 14.2718931 ], [ 121.3753486, 14.2718885 ], [ 121.3752407, 14.2718934 ], [ 121.3751574, 14.2719175 ], [ 121.3750986, 14.2719558 ], [ 121.3750447, 14.2719942 ], [ 121.3750054, 14.2719895 ], [ 121.3749809, 14.2719465 ], [ 121.3749513, 14.2718987 ], [ 121.3749316, 14.2718413 ], [ 121.3748727, 14.271784 ], [ 121.3748432, 14.2717314 ], [ 121.3747793, 14.2716646 ], [ 121.3747204, 14.2715881 ], [ 121.3746174, 14.2715883 ], [ 121.3745192, 14.2715645 ], [ 121.3744849, 14.2715598 ], [ 121.3744113, 14.2715408 ], [ 121.3743133, 14.2715505 ], [ 121.374225, 14.2715506 ], [ 121.3741662, 14.2715986 ], [ 121.374078, 14.2716131 ], [ 121.3739896, 14.2715893 ], [ 121.373926, 14.2716324 ], [ 121.3738475, 14.2716325 ], [ 121.3738523, 14.2715751 ], [ 121.3738032, 14.2715561 ], [ 121.3737884, 14.2714844 ], [ 121.3737736, 14.2714509 ], [ 121.373803, 14.2714222 ], [ 121.373803, 14.2713791 ], [ 121.3737539, 14.271384 ], [ 121.3737392, 14.2713553 ], [ 121.3736901, 14.2713602 ], [ 121.3736509, 14.2713841 ], [ 121.3736706, 14.2714128 ], [ 121.3736021, 14.2715181 ], [ 121.373558, 14.2715325 ], [ 121.3735238, 14.2715996 ], [ 121.3733127, 14.2715042 ], [ 121.3733127, 14.2714516 ], [ 121.3733519, 14.271442 ], [ 121.3733567, 14.2713798 ], [ 121.3733763, 14.2713559 ], [ 121.3733762, 14.2713033 ], [ 121.3734104, 14.2712267 ], [ 121.3735084, 14.2711787 ], [ 121.3735378, 14.2711978 ], [ 121.3735771, 14.2712169 ], [ 121.3736653, 14.2711785 ], [ 121.373675, 14.271121 ], [ 121.3737289, 14.2711018 ], [ 121.373778, 14.2711018 ], [ 121.3738222, 14.2711543 ], [ 121.373876, 14.2710729 ], [ 121.3738906, 14.270982 ], [ 121.3739346, 14.2709341 ], [ 121.3739248, 14.270915 ], [ 121.3739345, 14.2708767 ], [ 121.3739737, 14.2708527 ], [ 121.3739588, 14.2706997 ], [ 121.3738999, 14.2706615 ], [ 121.3738557, 14.2706712 ], [ 121.3738166, 14.2707334 ], [ 121.3737922, 14.27081 ], [ 121.3737727, 14.2708531 ], [ 121.3737384, 14.2708579 ], [ 121.3737285, 14.270834 ], [ 121.3736795, 14.2708532 ], [ 121.3736452, 14.2708437 ], [ 121.3736353, 14.2708102 ], [ 121.3735666, 14.270796 ], [ 121.3734734, 14.2707579 ], [ 121.373434, 14.2706814 ], [ 121.3734093, 14.2705762 ], [ 121.3732915, 14.2704999 ], [ 121.3731737, 14.2704379 ], [ 121.3730314, 14.270395 ], [ 121.3729333, 14.2703617 ], [ 121.3728205, 14.2703619 ], [ 121.3726635, 14.2703287 ], [ 121.3724575, 14.2703003 ], [ 121.3723985, 14.2702286 ], [ 121.3722807, 14.2701571 ], [ 121.3721727, 14.2700711 ], [ 121.3721138, 14.2700282 ], [ 121.3720205, 14.2699661 ], [ 121.3719616, 14.2699184 ], [ 121.3718781, 14.2698851 ], [ 121.3717996, 14.2698469 ], [ 121.371726, 14.269804 ], [ 121.3716328, 14.2697946 ], [ 121.371569, 14.2697803 ], [ 121.3714954, 14.269723 ], [ 121.3714169, 14.269704 ], [ 121.3713726, 14.2696276 ], [ 121.3713089, 14.2696229 ], [ 121.3713087, 14.2694985 ], [ 121.3712742, 14.2694077 ], [ 121.3712104, 14.2693695 ], [ 121.3711122, 14.2693314 ], [ 121.3710386, 14.2692694 ], [ 121.3709453, 14.2692265 ], [ 121.3708962, 14.269193 ], [ 121.3708373, 14.2691644 ], [ 121.3707688, 14.2692315 ], [ 121.3706511, 14.2692508 ], [ 121.3706266, 14.2692796 ], [ 121.3705727, 14.2692796 ], [ 121.370509, 14.2692941 ], [ 121.3704108, 14.2692416 ], [ 121.3703667, 14.2692417 ], [ 121.3703225, 14.2692178 ], [ 121.3702784, 14.2692227 ], [ 121.3702489, 14.2691797 ], [ 121.3702979, 14.2691414 ], [ 121.3702978, 14.2691031 ], [ 121.3701997, 14.2690985 ], [ 121.3701606, 14.2691559 ], [ 121.3701397, 14.2691472 ], [ 121.3700919, 14.2691273 ], [ 121.3700771, 14.2690939 ], [ 121.3700329, 14.2690652 ], [ 121.3699887, 14.2690079 ], [ 121.3699249, 14.2689745 ], [ 121.3698811, 14.2689222 ], [ 121.3697863, 14.2689221 ], [ 121.3697495, 14.2689222 ], [ 121.3697226, 14.2689581 ], [ 121.3696711, 14.2689582 ], [ 121.369671, 14.2689127 ], [ 121.3697053, 14.2688744 ], [ 121.3699548, 14.2685321 ], [ 121.3696431, 14.2683412 ], [ 121.3696114, 14.268425 ], [ 121.3696065, 14.2684704 ], [ 121.3695428, 14.2684753 ], [ 121.3694765, 14.2684443 ], [ 121.3694348, 14.26843 ], [ 121.3694176, 14.2684061 ], [ 121.3693882, 14.2683918 ], [ 121.3693489, 14.2683632 ], [ 121.3693367, 14.2683847 ], [ 121.3693195, 14.2684039 ], [ 121.3692852, 14.2684207 ], [ 121.3692509, 14.268416 ], [ 121.3692288, 14.2683945 ], [ 121.3691798, 14.2683874 ], [ 121.3691307, 14.2683922 ], [ 121.3690866, 14.2684019 ], [ 121.3690621, 14.2684354 ], [ 121.3691481, 14.2684795 ], [ 121.3691303, 14.2684989 ], [ 121.3691152, 14.2685152 ], [ 121.3690929, 14.2684927 ], [ 121.3690634, 14.268476 ], [ 121.3690291, 14.2684809 ], [ 121.3689948, 14.2685168 ], [ 121.3689974, 14.2685694 ], [ 121.3690478, 14.2685885 ], [ 121.3690808, 14.2686075 ], [ 121.3691078, 14.2686218 ], [ 121.3691324, 14.2686577 ], [ 121.3691226, 14.2686959 ], [ 121.3690957, 14.2687486 ], [ 121.3690958, 14.2687893 ], [ 121.3691278, 14.2688346 ], [ 121.3691646, 14.2688633 ], [ 121.3692112, 14.2688704 ], [ 121.3692578, 14.2688847 ], [ 121.3692946, 14.2689013 ], [ 121.3692971, 14.26893 ], [ 121.3692751, 14.2689588 ], [ 121.3692457, 14.2689803 ], [ 121.3692064, 14.268978 ], [ 121.3691452, 14.2689829 ], [ 121.3690692, 14.2689973 ], [ 121.3690152, 14.269007 ], [ 121.368981, 14.2690405 ], [ 121.3689246, 14.2690741 ], [ 121.3688977, 14.2691052 ], [ 121.3688561, 14.2691292 ], [ 121.368812, 14.2691604 ], [ 121.3687507, 14.2691796 ], [ 121.3687041, 14.269194 ], [ 121.3686846, 14.2692227 ], [ 121.3686428, 14.2691821 ], [ 121.3686256, 14.2691439 ], [ 121.3686353, 14.269108 ], [ 121.3686696, 14.2690673 ], [ 121.3687039, 14.2690242 ], [ 121.3687038, 14.2689883 ], [ 121.3686964, 14.2689597 ], [ 121.3686155, 14.2689526 ], [ 121.3685738, 14.2689527 ], [ 121.3685345, 14.2689264 ], [ 121.3684904, 14.2689217 ], [ 121.3684805, 14.2689002 ], [ 121.3684437, 14.2688716 ], [ 121.3683971, 14.2688668 ], [ 121.3683456, 14.2688574 ], [ 121.3683138, 14.2688013 ], [ 121.3682866, 14.2687546 ], [ 121.3682547, 14.2687523 ], [ 121.3682315, 14.2687376 ], [ 121.3681383, 14.2687764 ], [ 121.3680696, 14.2687765 ], [ 121.3680156, 14.2687478 ], [ 121.3679715, 14.268767 ], [ 121.3679373, 14.2688149 ], [ 121.367898, 14.2688102 ], [ 121.3678588, 14.2687816 ], [ 121.3678489, 14.2687385 ], [ 121.3678194, 14.2687051 ], [ 121.367834, 14.2686525 ], [ 121.367883, 14.268638 ], [ 121.3679321, 14.2686715 ], [ 121.3679713, 14.2686523 ], [ 121.3680007, 14.2686235 ], [ 121.3680841, 14.2686282 ], [ 121.3681332, 14.2686472 ], [ 121.3681822, 14.2686232 ], [ 121.368187, 14.268585 ], [ 121.3681771, 14.2685515 ], [ 121.3681967, 14.2684941 ], [ 121.3681623, 14.2684463 ], [ 121.3681426, 14.2684033 ], [ 121.3681572, 14.2683602 ], [ 121.3681523, 14.2683363 ], [ 121.3681081, 14.2682886 ], [ 121.368059, 14.2682456 ], [ 121.3680147, 14.268193 ], [ 121.3679804, 14.2681931 ], [ 121.3679857, 14.2681448 ], [ 121.3679307, 14.2681171 ], [ 121.3678847, 14.2681598 ], [ 121.3678358, 14.2681981 ], [ 121.3677719, 14.2681551 ], [ 121.3677914, 14.2680738 ], [ 121.3677423, 14.2680213 ], [ 121.3676294, 14.2679832 ], [ 121.3675754, 14.2679354 ], [ 121.3675067, 14.2679021 ], [ 121.3674968, 14.2678256 ], [ 121.3673692, 14.2677827 ], [ 121.3673005, 14.2677445 ], [ 121.3672857, 14.2676872 ], [ 121.3672023, 14.2676586 ], [ 121.3671336, 14.2676635 ], [ 121.367065, 14.267654 ], [ 121.3669619, 14.267635 ], [ 121.3668932, 14.2675969 ], [ 121.3668099, 14.267597 ], [ 121.3667314, 14.2675684 ], [ 121.3666773, 14.2675111 ], [ 121.3666331, 14.2674442 ], [ 121.3665304, 14.267366 ], [ 121.3663419, 14.2673552 ], [ 121.3674067, 14.2651928 ], [ 121.3676135, 14.2647829 ], [ 121.3680917, 14.2649933 ], [ 121.3685463, 14.2640755 ], [ 121.3692693, 14.2623215 ], [ 121.3680665, 14.2615762 ], [ 121.3683643, 14.2611181 ], [ 121.3684519, 14.2609892 ], [ 121.368686, 14.2605566 ], [ 121.3690688, 14.2607282 ], [ 121.3693221, 14.260069 ], [ 121.3693804, 14.2597007 ], [ 121.3694462, 14.2594548 ], [ 121.3692892, 14.2594144 ], [ 121.3694385, 14.2589084 ], [ 121.3688105, 14.2586965 ], [ 121.369226, 14.2578296 ], [ 121.368723, 14.2576056 ], [ 121.368938, 14.2571491 ], [ 121.3690529, 14.2569074 ], [ 121.3690917, 14.2568306 ], [ 121.3692917, 14.2565642 ], [ 121.3700349, 14.2555739 ], [ 121.3704354, 14.2545793 ], [ 121.370958, 14.2530101 ], [ 121.3701761, 14.2523526 ], [ 121.3710493, 14.2512461 ], [ 121.3719898, 14.2517129 ], [ 121.3729422, 14.2505302 ], [ 121.3741586, 14.2509221 ], [ 121.3743965, 14.2506552 ], [ 121.374086, 14.2500776 ], [ 121.3741287, 14.2496176 ], [ 121.3739722, 14.2495015 ], [ 121.3742527, 14.2487745 ], [ 121.3741873, 14.2486447 ], [ 121.3737881, 14.2484682 ], [ 121.3739425, 14.2481586 ], [ 121.3744792, 14.2471297 ], [ 121.3747353, 14.2463192 ], [ 121.3745178, 14.2461959 ], [ 121.3745022, 14.2461869 ], [ 121.3744819, 14.2457744 ], [ 121.3745456, 14.2457432 ], [ 121.3745353, 14.2454425 ], [ 121.3745595, 14.2452679 ], [ 121.3745543, 14.2450837 ], [ 121.3745516, 14.2449235 ], [ 121.3746717, 14.244909 ], [ 121.3746717, 14.2448827 ], [ 121.3749018, 14.2448856 ], [ 121.375238, 14.2448914 ], [ 121.3753234, 14.2446425 ], [ 121.375425, 14.244371 ], [ 121.3755151, 14.2441323 ], [ 121.37591, 14.2431267 ], [ 121.3759955, 14.2429304 ], [ 121.376005, 14.2427582 ], [ 121.3759949, 14.2425646 ], [ 121.3759875, 14.242512 ], [ 121.3759678, 14.2424761 ], [ 121.3760708, 14.2425262 ], [ 121.3762307, 14.2425863 ], [ 121.3762903, 14.2425509 ], [ 121.3763043, 14.2425513 ], [ 121.3768455, 14.2424587 ], [ 121.3771523, 14.2423907 ], [ 121.3772455, 14.2423954 ], [ 121.3773779, 14.2424143 ], [ 121.3774763, 14.2426318 ], [ 121.3775302, 14.2426078 ], [ 121.3778473, 14.2419765 ], [ 121.378004, 14.2418424 ], [ 121.3781039, 14.2417177 ], [ 121.3781967, 14.2416197 ], [ 121.3783362, 14.2414903 ], [ 121.3785125, 14.2413418 ], [ 121.3787525, 14.2411764 ], [ 121.379001, 14.2409357 ], [ 121.3793145, 14.240751 ], [ 121.3798135, 14.2404448 ], [ 121.3801855, 14.2402004 ], [ 121.3805602, 14.2399296 ], [ 121.3805624, 14.23981 ], [ 121.3805429, 14.2397908 ], [ 121.379889, 14.2391529 ], [ 121.3795492, 14.2389991 ], [ 121.3783003, 14.2380672 ], [ 121.3786861, 14.2374909 ], [ 121.3786686, 14.2372374 ], [ 121.3789777, 14.2373613 ], [ 121.3792077, 14.2374375 ], [ 121.3793891, 14.2374659 ], [ 121.3796883, 14.2374941 ], [ 121.3800565, 14.237432 ], [ 121.3802403, 14.2373647 ], [ 121.3805075, 14.2373308 ], [ 121.3805099, 14.2373045 ], [ 121.3805441, 14.2372423 ], [ 121.3808558, 14.236348 ], [ 121.3812421, 14.236414 ], [ 121.3814689, 14.2364433 ], [ 121.3822941, 14.2365664 ], [ 121.3824673, 14.2360292 ], [ 121.3824793, 14.2358809 ], [ 121.3825079, 14.2353942 ], [ 121.3825151, 14.2352842 ], [ 121.3825197, 14.2350953 ], [ 121.3825256, 14.2350198 ], [ 121.3825303, 14.2348603 ], [ 121.3825423, 14.2346786 ], [ 121.3825544, 14.234614 ], [ 121.3825542, 14.234504 ], [ 121.382608, 14.2344226 ], [ 121.3826664, 14.2341152 ], [ 121.382887, 14.2341005 ], [ 121.3830242, 14.2340261 ], [ 121.3830239, 14.2338587 ], [ 121.382862, 14.2338351 ], [ 121.3826756, 14.2337971 ], [ 121.3825383, 14.2337519 ], [ 121.3821705, 14.2333322 ], [ 121.3821752, 14.2332222 ], [ 121.3822364, 14.2332005 ], [ 121.3826931, 14.2328393 ], [ 121.3831269, 14.2331453 ], [ 121.3831881, 14.233107 ], [ 121.3832511, 14.2326507 ], [ 121.3832412, 14.2326101 ], [ 121.3832435, 14.2324809 ], [ 121.383258, 14.2323542 ], [ 121.3833092, 14.2322321 ], [ 121.3833997, 14.2320957 ], [ 121.3835029, 14.2319525 ], [ 121.3835881, 14.2318491 ], [ 121.3836445, 14.2316761 ], [ 121.3836837, 14.2313296 ], [ 121.3835, 14.2313045 ], [ 121.3834171, 14.2309063 ], [ 121.3840203, 14.2305398 ], [ 121.3845375, 14.2308887 ], [ 121.3848932, 14.2302261 ], [ 121.3846815, 14.229721 ], [ 121.3847541, 14.2296756 ], [ 121.3847572, 14.2289394 ], [ 121.3847514, 14.2283941 ], [ 121.3847535, 14.228222 ], [ 121.3847976, 14.2281932 ], [ 121.3848147, 14.2281645 ], [ 121.3848292, 14.2280233 ], [ 121.3848412, 14.2278488 ], [ 121.3848583, 14.2278129 ], [ 121.3848852, 14.2277889 ], [ 121.3853666, 14.2275741 ], [ 121.3854818, 14.2275811 ], [ 121.3857417, 14.2276237 ], [ 121.3859058, 14.2274991 ], [ 121.3859667, 14.2272503 ], [ 121.3860376, 14.2271827 ], [ 121.3860615, 14.2271479 ], [ 121.3860439, 14.2268753 ], [ 121.3861801, 14.226618 ], [ 121.3864203, 14.2265866 ], [ 121.3864717, 14.2265387 ], [ 121.3865133, 14.226474 ], [ 121.3865181, 14.2264453 ], [ 121.3864199, 14.226357 ], [ 121.3864221, 14.2262087 ], [ 121.3865911, 14.2260841 ], [ 121.3867571, 14.2256558 ], [ 121.3867748, 14.2255584 ], [ 121.3867983, 14.225331 ], [ 121.3867639, 14.2253119 ], [ 121.3865702, 14.2253194 ], [ 121.3864696, 14.2252383 ], [ 121.3864326, 14.2250925 ], [ 121.3863612, 14.2248965 ], [ 121.3862923, 14.2247746 ], [ 121.3863436, 14.2246789 ], [ 121.3863165, 14.2245705 ], [ 121.386314, 14.2244319 ], [ 121.386392, 14.224183 ], [ 121.3865138, 14.223753 ], [ 121.3865931, 14.2235107 ], [ 121.3866368, 14.2234173 ], [ 121.3866658, 14.2233317 ], [ 121.3866984, 14.223234 ], [ 121.386734, 14.2231149 ], [ 121.3869255, 14.223208 ], [ 121.3870777, 14.2228087 ], [ 121.3874517, 14.2220821 ], [ 121.3875788, 14.2218178 ], [ 121.3872092, 14.2216579 ], [ 121.386802, 14.2214792 ], [ 121.3868193, 14.2214467 ], [ 121.3869229, 14.2212028 ], [ 121.387023, 14.2209635 ], [ 121.387142, 14.2207062 ], [ 121.3871762, 14.2206296 ], [ 121.3873399, 14.2202491 ], [ 121.387589, 14.2197077 ], [ 121.3875975, 14.2196807 ], [ 121.3875975, 14.2196353 ], [ 121.3877389, 14.2192094 ], [ 121.3879049, 14.2187536 ], [ 121.3875345, 14.2186274 ], [ 121.3876419, 14.2183546 ], [ 121.3877682, 14.2180089 ], [ 121.3878707, 14.2177289 ], [ 121.3883452, 14.2178549 ], [ 121.3886224, 14.2179334 ], [ 121.3887989, 14.2179714 ], [ 121.3890786, 14.2180618 ], [ 121.3892678, 14.2175999 ], [ 121.3900605, 14.217787 ], [ 121.3901206, 14.2178084 ], [ 121.3905064, 14.2179606 ], [ 121.3905983, 14.2179867 ], [ 121.3906989, 14.2180296 ], [ 121.3907995, 14.2180605 ], [ 121.3909586, 14.2181293 ], [ 121.3912205, 14.2182234 ], [ 121.3915063, 14.2183329 ], [ 121.3917436, 14.2184303 ], [ 121.3917829, 14.2184374 ], [ 121.3918381, 14.2184684 ], [ 121.3919485, 14.2185196 ], [ 121.3922542, 14.2186501 ], [ 121.3928252, 14.2188856 ], [ 121.3930763, 14.2189984 ], [ 121.3933461, 14.2191183 ], [ 121.393967, 14.2193394 ], [ 121.3947097, 14.2196117 ], [ 121.3949832, 14.2197189 ], [ 121.394982, 14.2197191 ], [ 121.3956847, 14.2199769 ], [ 121.3957097, 14.2199072 ], [ 121.3958505, 14.2194541 ], [ 121.3960798, 14.2187602 ], [ 121.3961038, 14.2184851 ], [ 121.396164, 14.2184802 ], [ 121.3962365, 14.218475 ], [ 121.3962486, 14.2183793 ], [ 121.3963798, 14.2176677 ], [ 121.3964382, 14.2174189 ], [ 121.3964969, 14.2171589 ], [ 121.3965282, 14.2170229 ], [ 121.3972344, 14.2171485 ], [ 121.3973202, 14.2171556 ], [ 121.3977518, 14.2172242 ], [ 121.3982238, 14.2172976 ], [ 121.398959, 14.2174925 ], [ 121.3989351, 14.217844 ], [ 121.3996157, 14.2180241 ], [ 121.3996549, 14.2180455 ], [ 121.3997236, 14.2180478 ], [ 121.3997824, 14.218031 ], [ 121.3998265, 14.2179998 ], [ 121.3999294, 14.218002 ], [ 121.4001416, 14.2180489 ], [ 121.4002077, 14.2180297 ], [ 121.4002665, 14.2179937 ], [ 121.4003448, 14.2179003 ], [ 121.4004869, 14.2178833 ], [ 121.4006145, 14.2179334 ], [ 121.4006978, 14.2179356 ], [ 121.4008105, 14.2178804 ], [ 121.4012726, 14.2178892 ], [ 121.4013658, 14.2178843 ], [ 121.4014109, 14.2178743 ], [ 121.4014121, 14.2178325 ], [ 121.4015641, 14.2178561 ], [ 121.4020497, 14.2179749 ], [ 121.4023932, 14.2181561 ], [ 121.4025208, 14.2181941 ] ] ] ] } }
]
}
